{
"type": "FeatureCollection",
"name": "counties_wgs84",
"crs": { "type": "name", "properties": { "name": "urn:ogc:def:crs:OGC:1.3:CRS84" } },
"features": [
{ "type": "Feature", "properties": { "fid": 1.0, "scalerank": 1, "featurecla": "Admin-0 Tiny Countries", "sr_label_i": 2, "sr_label_o": 4, "LABELRANK": 4, "SOVEREIGNT": "Vanuatu", "SOV_A3": "VUT", "ADM0_DIF": 0, "LEVEL": 2, "TYPE": "Sovereign country", "ADMIN": "Vanuatu", "ADM0_A3": "VUT", "GEOU_DIF": 0, "GEOUNIT": "Vanuatu", "GU_A3": "VUT", "SU_DIF": 0, "SUBUNIT": "Vanuatu", "SU_A3": "VUT", "BRK_DIFF": 0, "NAME": "Vanuatu", "NAME_LONG": "Vanuatu", "BRK_A3": "VUT", "BRK_NAME": "Vanuatu", "BRK_GROUP": null, "ABBREV": "Van.", "POSTAL": "VU", "FORMAL_EN": "Republic of Vanuatu", "FORMAL_FR": null, "NAME_CIAWF": "Vanuatu", "NOTE_ADM0": null, "NOTE_BRK": null, "NAME_SORT": "Vanuatu", "NAME_ALT": null, "MAPCOLOR7": 6, "MAPCOLOR8": 3, "MAPCOLOR9": 7, "MAPCOLOR13": 3, "POP_EST": 282814.0, "POP_RANK": 10, "GDP_MD_EST": 723.0, "POP_YEAR": 2017, "LASTCENSUS": 2009, "GDP_YEAR": 2016, "ECONOMY": "7. Least developed region", "INCOME_GRP": "4. Lower middle income", "WIKIPEDIA": -99, "FIPS_10_": "NH", "ISO_A2": "VU", "ISO_A3": "VUT", "ISO_A3_EH": "VUT", "ISO_N3": "548", "UN_A3": "548", "WB_A2": "VU", "WB_A3": "VUT", "WOE_ID": 23424907, "WOE_ID_EH": 23424907, "WOE_NOTE": "Exact WOE match as country", "ADM0_A3_IS": "VUT", "ADM0_A3_US": "VUT", "ADM0_A3_UN": -99, "ADM0_A3_WB": -99, "CONTINENT": "Oceania", "REGION_UN": "Oceania", "SUBREGION": "Melanesia", "REGION_WB": "East Asia & Pacific", "NAME_LEN": 7, "LONG_LEN": 7, "ABBREV_LEN": 4, "TINY": 2, "HOMEPART": 1, "MIN_ZOOM": 0, "MIN_LABEL": 4.0, "MAX_LABEL": 9.0, "NE_ID": 1159321421.0, "WIKIDATAID": "Q686", "NAME_AR": "فانواتو", "NAME_BN": "ভানুয়াটু", "NAME_DE": "Vanuatu", "NAME_EN": "Vanuatu", "NAME_ES": "Vanuatu", "NAME_FR": "Vanuatu", "NAME_EL": "Βανουάτου", "NAME_HI": "वानूआटू", "NAME_HU": "Vanuatu", "NAME_ID": "Vanuatu", "NAME_IT": "Vanuatu", "NAME_JA": "バヌアツ", "NAME_KO": "바누아투", "NAME_NL": "Vanuatu", "NAME_PL": "Vanuatu", "NAME_PT": "Vanuatu", "NAME_RU": "Вануату", "NAME_SV": "Vanuatu", "NAME_TR": "Vanuatu", "NAME_VI": "Vanuatu", "NAME_ZH": "萬那杜" }, "geometry": { "type": "Point", "coordinates": [ 166.927066439598889, -15.367957152169708 ] } },
{ "type": "Feature", "properties": { "fid": 2.0, "scalerank": 1, "featurecla": "Admin-0 Tiny Countries", "sr_label_i": 2, "sr_label_o": 6, "LABELRANK": 6, "SOVEREIGNT": "France", "SOV_A3": "FR1", "ADM0_DIF": 1, "LEVEL": 2, "TYPE": "Dependency", "ADMIN": "French Southern and Antarctic Lands", "ADM0_A3": "ATF", "GEOU_DIF": 0, "GEOUNIT": "French Southern and Antarctic Lands", "GU_A3": "ATF", "SU_DIF": 0, "SUBUNIT": "French Southern and Antarctic Lands", "SU_A3": "ATF", "BRK_DIFF": 0, "NAME": "Fr. S. Antarctic Lands", "NAME_LONG": "French Southern and Antarctic Lands", "BRK_A3": "ATF", "BRK_NAME": "Fr. S. and Antarctic Lands", "BRK_GROUP": null, "ABBREV": "Fr. S.A.L.", "POSTAL": "TF", "FORMAL_EN": "Territory of the French Southern and Antarctic Lands", "FORMAL_FR": null, "NAME_CIAWF": null, "NOTE_ADM0": "Fr.", "NOTE_BRK": null, "NAME_SORT": "French Southern and Antarctic Lands", "NAME_ALT": null, "MAPCOLOR7": 7, "MAPCOLOR8": 5, "MAPCOLOR9": 9, "MAPCOLOR13": 11, "POP_EST": 140.0, "POP_RANK": 1, "GDP_MD_EST": 16.0, "POP_YEAR": 2017, "LASTCENSUS": -99, "GDP_YEAR": 2016, "ECONOMY": "6. Developing region", "INCOME_GRP": "2. High income: nonOECD", "WIKIPEDIA": -99, "FIPS_10_": "FS", "ISO_A2": "TF", "ISO_A3": "ATF", "ISO_A3_EH": "ATF", "ISO_N3": "260", "UN_A3": "-099", "WB_A2": "-99", "WB_A3": "-99", "WOE_ID": 28289406, "WOE_ID_EH": 28289406, "WOE_NOTE": "Exact WOE match as country", "ADM0_A3_IS": "ATF", "ADM0_A3_US": "ATF", "ADM0_A3_UN": -99, "ADM0_A3_WB": -99, "CONTINENT": "Seven seas (open ocean)", "REGION_UN": "Seven seas (open ocean)", "SUBREGION": "Seven seas (open ocean)", "REGION_WB": "Sub-Saharan Africa", "NAME_LEN": 22, "LONG_LEN": 35, "ABBREV_LEN": 10, "TINY": 2, "HOMEPART": -99, "MIN_ZOOM": 0, "MIN_LABEL": 4.0, "MAX_LABEL": 9.0, "NE_ID": 1159320631.0, "WIKIDATAID": "Q129003", "NAME_AR": "أراض فرنسية جنوبية وأنتارتيكية", "NAME_BN": null, "NAME_DE": "Französische Süd- und Antarktisgebiete", "NAME_EN": "French Southern and Antarctic Lands", "NAME_ES": "Tierras Australes y Antárticas Francesas", "NAME_FR": "Terres australes et antarctiques françaises", "NAME_EL": "Γαλλικά Νότια και Ανταρκτικά Εδάφη", "NAME_HI": "दक्षिण फ्रांसीसी और अंटार्कटिक लैंड", "NAME_HU": "Francia déli és antarktiszi területek", "NAME_ID": "Daratan Selatan dan Antarktika Perancis", "NAME_IT": "Terre australi e antartiche francesi", "NAME_JA": "フランス領南方・南極地域", "NAME_KO": "프랑스령 남방 및 남극", "NAME_NL": "Franse Zuidelijke en Antarctische Gebieden", "NAME_PL": "Francuskie Terytoria Południowe i Antarktyczne", "NAME_PT": "Terras Austrais e Antárticas Francesas", "NAME_RU": "Французские Южные и Антарктические территории", "NAME_SV": "Franska sydterritorierna", "NAME_TR": "Fransız Güney ve Antarktika Toprakları", "NAME_VI": "Vùng đất phía Nam và châu Nam Cực thuộc Pháp", "NAME_ZH": "法属南部领地" }, "geometry": { "type": "Point", "coordinates": [ 69.225139990869252, -49.338781961635448 ] } },
{ "type": "Feature", "properties": { "fid": 3.0, "scalerank": 2, "featurecla": "Admin-0 Tiny Countries", "sr_label_i": 3, "sr_label_o": 6, "LABELRANK": 6, "SOVEREIGNT": "United Kingdom", "SOV_A3": "GB1", "ADM0_DIF": 1, "LEVEL": 2, "TYPE": "Dependency", "ADMIN": "Turks and Caicos Islands", "ADM0_A3": "TCA", "GEOU_DIF": 0, "GEOUNIT": "Turks and Caicos Islands", "GU_A3": "TCA", "SU_DIF": 0, "SUBUNIT": "Turks and Caicos Islands", "SU_A3": "TCA", "BRK_DIFF": 0, "NAME": "Turks and Caicos Is.", "NAME_LONG": "Turks and Caicos Islands", "BRK_A3": "TCA", "BRK_NAME": "Turks and Caicos Is.", "BRK_GROUP": null, "ABBREV": "T.C. Is.", "POSTAL": "TC", "FORMAL_EN": "Turks and Caicos Islands", "FORMAL_FR": null, "NAME_CIAWF": "Turks and Caicos Islands", "NOTE_ADM0": "U.K.", "NOTE_BRK": null, "NAME_SORT": "Turks and Caicos Islands", "NAME_ALT": null, "MAPCOLOR7": 6, "MAPCOLOR8": 6, "MAPCOLOR9": 6, "MAPCOLOR13": 3, "POP_EST": 52570.0, "POP_RANK": 8, "GDP_MD_EST": 632.0, "POP_YEAR": 2017, "LASTCENSUS": 2001, "GDP_YEAR": 2007, "ECONOMY": "6. Developing region", "INCOME_GRP": "2. High income: nonOECD", "WIKIPEDIA": -99, "FIPS_10_": "TK", "ISO_A2": "TC", "ISO_A3": "TCA", "ISO_A3_EH": "TCA", "ISO_N3": "796", "UN_A3": "796", "WB_A2": "TC", "WB_A3": "TCA", "WOE_ID": 23424962, "WOE_ID_EH": 23424962, "WOE_NOTE": "Exact WOE match as country", "ADM0_A3_IS": "TCA", "ADM0_A3_US": "TCA", "ADM0_A3_UN": -99, "ADM0_A3_WB": -99, "CONTINENT": "North America", "REGION_UN": "Americas", "SUBREGION": "Caribbean", "REGION_WB": "Latin America & Caribbean", "NAME_LEN": 20, "LONG_LEN": 24, "ABBREV_LEN": 8, "TINY": -99, "HOMEPART": -99, "MIN_ZOOM": 0, "MIN_LABEL": 5.0, "MAX_LABEL": 10.0, "NE_ID": 1159320737.0, "WIKIDATAID": "Q18221", "NAME_AR": "جزر توركس وكايكوس", "NAME_BN": "টার্কস্‌ ও কেইকোস দ্বীপপুঞ্জ", "NAME_DE": "Turks- und Caicosinseln", "NAME_EN": "Turks and Caicos Islands", "NAME_ES": "Islas Turcas y Caicos", "NAME_FR": "îles Turques-et-Caïques", "NAME_EL": "Τερκ και Κάικος", "NAME_HI": "तुर्क और केकोस द्वीपसमूह", "NAME_HU": "Turks- és Caicos-szigetek", "NAME_ID": "Kepulauan Turks dan Caicos", "NAME_IT": "Turks e Caicos", "NAME_JA": "タークス・カイコス諸島", "NAME_KO": "터크스 케이커스 제도", "NAME_NL": "Turks- en Caicoseilanden", "NAME_PL": "Turks i Caicos", "NAME_PT": "Turks e Caicos", "NAME_RU": "Тёркс и Кайкос", "NAME_SV": "Turks- och Caicosöarna", "NAME_TR": "Turks ve Caicos Adaları", "NAME_VI": "Quần đảo Turks và Caicos", "NAME_ZH": "特克斯和凯科斯群岛" }, "geometry": { "type": "Point", "coordinates": [ -71.953904310573876, 21.912993441281742 ] } },
{ "type": "Feature", "properties": { "fid": 4.0, "scalerank": 2, "featurecla": "Admin-0 Tiny Countries", "sr_label_i": 3, "sr_label_o": 6, "LABELRANK": 4, "SOVEREIGNT": "New Zealand", "SOV_A3": "NZ1", "ADM0_DIF": 1, "LEVEL": 2, "TYPE": "Dependency", "ADMIN": "Cook Islands", "ADM0_A3": "COK", "GEOU_DIF": 0, "GEOUNIT": "Cook Islands", "GU_A3": "COK", "SU_DIF": 0, "SUBUNIT": "Cook Islands", "SU_A3": "COK", "BRK_DIFF": 0, "NAME": "Cook Is.", "NAME_LONG": "Cook Islands", "BRK_A3": "COK", "BRK_NAME": "Cook Is.", "BRK_GROUP": null, "ABBREV": "Cook Is.", "POSTAL": "CK", "FORMAL_EN": null, "FORMAL_FR": null, "NAME_CIAWF": "Cook Islands", "NOTE_ADM0": "Assoc. with N.Z.", "NOTE_BRK": null, "NAME_SORT": "Cook Islands", "NAME_ALT": null, "MAPCOLOR7": 3, "MAPCOLOR8": 3, "MAPCOLOR9": 4, "MAPCOLOR13": 4, "POP_EST": 9290.0, "POP_RANK": 5, "GDP_MD_EST": 244.1, "POP_YEAR": 2017, "LASTCENSUS": -99, "GDP_YEAR": 2010, "ECONOMY": "6. Developing region", "INCOME_GRP": "3. Upper middle income", "WIKIPEDIA": -99, "FIPS_10_": "CW", "ISO_A2": "CK", "ISO_A3": "COK", "ISO_A3_EH": "COK", "ISO_N3": "184", "UN_A3": "184", "WB_A2": "-99", "WB_A3": "-99", "WOE_ID": 23424795, "WOE_ID_EH": 23424795, "WOE_NOTE": "Exact WOE match as country", "ADM0_A3_IS": "COK", "ADM0_A3_US": "COK", "ADM0_A3_UN": -99, "ADM0_A3_WB": -99, "CONTINENT": "Oceania", "REGION_UN": "Oceania", "SUBREGION": "Polynesia", "REGION_WB": "East Asia & Pacific", "NAME_LEN": 8, "LONG_LEN": 12, "ABBREV_LEN": 8, "TINY": 3, "HOMEPART": -99, "MIN_ZOOM": 0, "MIN_LABEL": 4.0, "MAX_LABEL": 9.0, "NE_ID": 1159321129.0, "WIKIDATAID": "Q26988", "NAME_AR": "جزر كوك", "NAME_BN": "কুক দ্বীপপুঞ্জ", "NAME_DE": "Cookinseln", "NAME_EN": "Cook Islands", "NAME_ES": "Islas Cook", "NAME_FR": "Îles Cook", "NAME_EL": "Νήσοι Κουκ", "NAME_HI": "कुक द्वीपसमूह", "NAME_HU": "Cook-szigetek", "NAME_ID": "Kepulauan Cook", "NAME_IT": "Isole Cook", "NAME_JA": "クック諸島", "NAME_KO": "쿡 제도", "NAME_NL": "Cookeilanden", "NAME_PL": "Wyspy Cooka", "NAME_PT": "Ilhas Cook", "NAME_RU": "Острова Кука", "NAME_SV": "Cooköarna", "NAME_TR": "Cook Adaları", "NAME_VI": "Quần đảo Cook", "NAME_ZH": "库克群岛" }, "geometry": { "type": "Point", "coordinates": [ -159.78922694470387, -21.220086945691605 ] } },
{ "type": "Feature", "properties": { "fid": 5.0, "scalerank": 2, "featurecla": "Admin-0 Tiny Countries", "sr_label_i": 2, "sr_label_o": 4, "LABELRANK": 4, "SOVEREIGNT": "Samoa", "SOV_A3": "WSM", "ADM0_DIF": 0, "LEVEL": 2, "TYPE": "Sovereign country", "ADMIN": "Samoa", "ADM0_A3": "WSM", "GEOU_DIF": 0, "GEOUNIT": "Samoa", "GU_A3": "WSM", "SU_DIF": 0, "SUBUNIT": "Samoa", "SU_A3": "WSM", "BRK_DIFF": 0, "NAME": "Samoa", "NAME_LONG": "Samoa", "BRK_A3": "WSM", "BRK_NAME": "Samoa", "BRK_GROUP": null, "ABBREV": "Samoa", "POSTAL": "WS", "FORMAL_EN": "Independent State of Samoa", "FORMAL_FR": null, "NAME_CIAWF": "Samoa", "NOTE_ADM0": null, "NOTE_BRK": null, "NAME_SORT": "Samoa", "NAME_ALT": null, "MAPCOLOR7": 3, "MAPCOLOR8": 3, "MAPCOLOR9": 4, "MAPCOLOR13": 6, "POP_EST": 200108.0, "POP_RANK": 10, "GDP_MD_EST": 1046.0, "POP_YEAR": 2017, "LASTCENSUS": 2006, "GDP_YEAR": 2016, "ECONOMY": "7. Least developed region", "INCOME_GRP": "4. Lower middle income", "WIKIPEDIA": -99, "FIPS_10_": "WS", "ISO_A2": "WS", "ISO_A3": "WSM", "ISO_A3_EH": "WSM", "ISO_N3": "882", "UN_A3": "882", "WB_A2": "WS", "WB_A3": "WSM", "WOE_ID": 23424992, "WOE_ID_EH": 23424992, "WOE_NOTE": "Exact WOE match as country", "ADM0_A3_IS": "WSM", "ADM0_A3_US": "WSM", "ADM0_A3_UN": -99, "ADM0_A3_WB": -99, "CONTINENT": "Oceania", "REGION_UN": "Oceania", "SUBREGION": "Polynesia", "REGION_WB": "East Asia & Pacific", "NAME_LEN": 5, "LONG_LEN": 5, "ABBREV_LEN": 5, "TINY": -99, "HOMEPART": 1, "MIN_ZOOM": 0, "MIN_LABEL": 3.0, "MAX_LABEL": 8.0, "NE_ID": 1159321423.0, "WIKIDATAID": "Q683", "NAME_AR": "ساموا", "NAME_BN": "সামোয়া", "NAME_DE": "Samoa", "NAME_EN": "Samoa", "NAME_ES": "Samoa", "NAME_FR": "Samoa", "NAME_EL": "Σαμόα", "NAME_HI": "समोआ", "NAME_HU": "Szamoa", "NAME_ID": "Samoa", "NAME_IT": "Samoa", "NAME_JA": "サモア", "NAME_KO": "사모아", "NAME_NL": "Samoa", "NAME_PL": "Samoa", "NAME_PT": "Samoa", "NAME_RU": "Самоа", "NAME_SV": "Samoa", "NAME_TR": "Samoa", "NAME_VI": "Samoa", "NAME_ZH": "萨摩亚" }, "geometry": { "type": "Point", "coordinates": [ -172.413730266883363, -13.637369985140253 ] } },
{ "type": "Feature", "properties": { "fid": 6.0, "scalerank": 2, "featurecla": "Admin-0 Tiny Countries", "sr_label_i": 3, "sr_label_o": 4, "LABELRANK": 4, "SOVEREIGNT": "Tonga", "SOV_A3": "TON", "ADM0_DIF": 0, "LEVEL": 2, "TYPE": "Sovereign country", "ADMIN": "Tonga", "ADM0_A3": "TON", "GEOU_DIF": 0, "GEOUNIT": "Tonga", "GU_A3": "TON", "SU_DIF": 0, "SUBUNIT": "Tonga", "SU_A3": "TON", "BRK_DIFF": 0, "NAME": "Tonga", "NAME_LONG": "Tonga", "BRK_A3": "TON", "BRK_NAME": "Tonga", "BRK_GROUP": null, "ABBREV": "Tongo", "POSTAL": "TO", "FORMAL_EN": "Kingdom of Tonga", "FORMAL_FR": null, "NAME_CIAWF": "Tonga", "NOTE_ADM0": null, "NOTE_BRK": null, "NAME_SORT": "Tonga", "NAME_ALT": null, "MAPCOLOR7": 2, "MAPCOLOR8": 1, "MAPCOLOR9": 1, "MAPCOLOR13": 8, "POP_EST": 106479.0, "POP_RANK": 9, "GDP_MD_EST": 557.0, "POP_YEAR": 2017, "LASTCENSUS": 2006, "GDP_YEAR": 2016, "ECONOMY": "6. Developing region", "INCOME_GRP": "4. Lower middle income", "WIKIPEDIA": -99, "FIPS_10_": "TN", "ISO_A2": "TO", "ISO_A3": "TON", "ISO_A3_EH": "TON", "ISO_N3": "776", "UN_A3": "776", "WB_A2": "TO", "WB_A3": "TON", "WOE_ID": 23424964, "WOE_ID_EH": 23424964, "WOE_NOTE": "Exact WOE match as country", "ADM0_A3_IS": "TON", "ADM0_A3_US": "TON", "ADM0_A3_UN": -99, "ADM0_A3_WB": -99, "CONTINENT": "Oceania", "REGION_UN": "Oceania", "SUBREGION": "Polynesia", "REGION_WB": "East Asia & Pacific", "NAME_LEN": 5, "LONG_LEN": 5, "ABBREV_LEN": 5, "TINY": 3, "HOMEPART": 1, "MIN_ZOOM": 0, "MIN_LABEL": 4.0, "MAX_LABEL": 9.0, "NE_ID": 1159321319.0, "WIKIDATAID": "Q678", "NAME_AR": "تونغا", "NAME_BN": "টোঙ্গা", "NAME_DE": "Tonga", "NAME_EN": "Tonga", "NAME_ES": "Tonga", "NAME_FR": "Tonga", "NAME_EL": "Τόνγκα", "NAME_HI": "टोंगा", "NAME_HU": "Tonga", "NAME_ID": "Tonga", "NAME_IT": "Tonga", "NAME_JA": "トンガ", "NAME_KO": "통가", "NAME_NL": "Tonga", "NAME_PL": "Tonga", "NAME_PT": "Tonga", "NAME_RU": "Тонга", "NAME_SV": "Tonga", "NAME_TR": "Tonga", "NAME_VI": "Tonga", "NAME_ZH": "東加" }, "geometry": { "type": "Point", "coordinates": [ -175.235332954667541, -21.158187998515473 ] } },
{ "type": "Feature", "properties": { "fid": 7.0, "scalerank": 2, "featurecla": "Admin-0 Tiny Countries", "sr_label_i": 2, "sr_label_o": 5, "LABELRANK": 4, "SOVEREIGNT": "France", "SOV_A3": "FR1", "ADM0_DIF": 1, "LEVEL": 2, "TYPE": "Dependency", "ADMIN": "French Polynesia", "ADM0_A3": "PYF", "GEOU_DIF": 0, "GEOUNIT": "French Polynesia", "GU_A3": "PYF", "SU_DIF": 0, "SUBUNIT": "French Polynesia", "SU_A3": "PYF", "BRK_DIFF": 0, "NAME": "Fr. Polynesia", "NAME_LONG": "French Polynesia", "BRK_A3": "PYF", "BRK_NAME": "Fr. Polynesia", "BRK_GROUP": null, "ABBREV": "Fr. Poly.", "POSTAL": "PF", "FORMAL_EN": "French Polynesia", "FORMAL_FR": null, "NAME_CIAWF": "French Polynesia", "NOTE_ADM0": "Fr.", "NOTE_BRK": null, "NAME_SORT": "French Polynesia", "NAME_ALT": null, "MAPCOLOR7": 7, "MAPCOLOR8": 5, "MAPCOLOR9": 9, "MAPCOLOR13": 11, "POP_EST": 287881.0, "POP_RANK": 10, "GDP_MD_EST": 5490.0, "POP_YEAR": 2017, "LASTCENSUS": 2007, "GDP_YEAR": 2016, "ECONOMY": "6. Developing region", "INCOME_GRP": "2. High income: nonOECD", "WIKIPEDIA": -99, "FIPS_10_": "FP", "ISO_A2": "PF", "ISO_A3": "PYF", "ISO_A3_EH": "PYF", "ISO_N3": "258", "UN_A3": "258", "WB_A2": "PF", "WB_A3": "PYF", "WOE_ID": 23424817, "WOE_ID_EH": 23424817, "WOE_NOTE": "Exact WOE match as country", "ADM0_A3_IS": "PYF", "ADM0_A3_US": "PYF", "ADM0_A3_UN": -99, "ADM0_A3_WB": -99, "CONTINENT": "Oceania", "REGION_UN": "Oceania", "SUBREGION": "Polynesia", "REGION_WB": "East Asia & Pacific", "NAME_LEN": 13, "LONG_LEN": 16, "ABBREV_LEN": 9, "TINY": 2, "HOMEPART": -99, "MIN_ZOOM": 0, "MIN_LABEL": 3.5, "MAX_LABEL": 8.5, "NE_ID": 1159320643.0, "WIKIDATAID": "Q30971", "NAME_AR": "بولينزيا الفرنسية", "NAME_BN": "ফরাসি পলিনেশিয়া", "NAME_DE": "Französisch-Polynesien", "NAME_EN": "French Polynesia", "NAME_ES": "Polinesia Francesa", "NAME_FR": "Polynésie française", "NAME_EL": "Γαλλική Πολυνησία", "NAME_HI": "फ़्रान्सीसी पॉलिनेशिया", "NAME_HU": "Francia Polinézia", "NAME_ID": "Polinesia Perancis", "NAME_IT": "Polinesia Francese", "NAME_JA": "フランス領ポリネシア", "NAME_KO": "프랑스령 폴리네시아", "NAME_NL": "Frans-Polynesië", "NAME_PL": "Polinezja Francuska", "NAME_PT": "Polinésia Francesa", "NAME_RU": "Французская Полинезия", "NAME_SV": "Franska Polynesien", "NAME_TR": "Fransız Polinezyası", "NAME_VI": "Polynésie thuộc Pháp", "NAME_ZH": "法屬玻里尼西亞" }, "geometry": { "type": "Point", "coordinates": [ -149.475495978778554, -17.625004983512099 ] } },
{ "type": "Feature", "properties": { "fid": 8.0, "scalerank": 2, "featurecla": "Admin-0 Tiny Countries", "sr_label_i": 3, "sr_label_o": 6, "LABELRANK": 4, "SOVEREIGNT": "United Kingdom", "SOV_A3": "GB1", "ADM0_DIF": 1, "LEVEL": 2, "TYPE": "Dependency", "ADMIN": "Pitcairn Islands", "ADM0_A3": "PCN", "GEOU_DIF": 0, "GEOUNIT": "Pitcairn Islands", "GU_A3": "PCN", "SU_DIF": 0, "SUBUNIT": "Pitcairn Islands", "SU_A3": "PCN", "BRK_DIFF": 0, "NAME": "Pitcairn Is.", "NAME_LONG": "Pitcairn Islands", "BRK_A3": "PCN", "BRK_NAME": "Pitcairn Is.", "BRK_GROUP": null, "ABBREV": "Pit. Is.", "POSTAL": "PN", "FORMAL_EN": "Pitcairn, Henderson, Ducie and Oeno Islands", "FORMAL_FR": null, "NAME_CIAWF": "Pitcairn Islands", "NOTE_ADM0": "U.K.", "NOTE_BRK": null, "NAME_SORT": "Pitcairn Islands", "NAME_ALT": null, "MAPCOLOR7": 6, "MAPCOLOR8": 6, "MAPCOLOR9": 6, "MAPCOLOR13": 3, "POP_EST": 54.0, "POP_RANK": 1, "GDP_MD_EST": 0.0, "POP_YEAR": 2016, "LASTCENSUS": -99, "GDP_YEAR": 2016, "ECONOMY": "7. Least developed region", "INCOME_GRP": "5. Low income", "WIKIPEDIA": -99, "FIPS_10_": "PC", "ISO_A2": "PN", "ISO_A3": "PCN", "ISO_A3_EH": "PCN", "ISO_N3": "612", "UN_A3": "612", "WB_A2": "-99", "WB_A3": "-99", "WOE_ID": 23424918, "WOE_ID_EH": 23424918, "WOE_NOTE": "Exact WOE match as country", "ADM0_A3_IS": "PCN", "ADM0_A3_US": "PCN", "ADM0_A3_UN": -99, "ADM0_A3_WB": -99, "CONTINENT": "Oceania", "REGION_UN": "Oceania", "SUBREGION": "Polynesia", "REGION_WB": "East Asia & Pacific", "NAME_LEN": 12, "LONG_LEN": 16, "ABBREV_LEN": 8, "TINY": -99, "HOMEPART": -99, "MIN_ZOOM": 0, "MIN_LABEL": 5.0, "MAX_LABEL": 9.0, "NE_ID": 1159320729.0, "WIKIDATAID": "Q35672", "NAME_AR": "جزر بيتكيرن", "NAME_BN": "পীটকেয়ার্ন দ্বীপপুঞ্জ", "NAME_DE": "Pitcairninseln", "NAME_EN": "Pitcairn Islands", "NAME_ES": "Islas Pitcairn", "NAME_FR": "Îles Pitcairn", "NAME_EL": "Νήσοι Πίτκερν", "NAME_HI": "पिटकेम द्वीप समूह", "NAME_HU": "Pitcairn-szigetek", "NAME_ID": "Kepulauan Pitcairn", "NAME_IT": "Isole Pitcairn", "NAME_JA": "ピトケアン諸島", "NAME_KO": "핏케언 제도", "NAME_NL": "Pitcairneilanden", "NAME_PL": "Pitcairn", "NAME_PT": "Ilhas Pitcairn", "NAME_RU": "Острова Питкэрн", "NAME_SV": "Pitcairnöarna", "NAME_TR": "Pitcairn Adaları", "NAME_VI": "Quần đảo Pitcairn", "NAME_ZH": "皮特凯恩群岛" }, "geometry": { "type": "Point", "coordinates": [ -128.317800120960328, -24.364139777771015 ] } },
{ "type": "Feature", "properties": { "fid": 9.0, "scalerank": 2, "featurecla": "Admin-0 Tiny Countries", "sr_label_i": 3, "sr_label_o": 5, "LABELRANK": 5, "SOVEREIGNT": "Barbados", "SOV_A3": "BRB", "ADM0_DIF": 0, "LEVEL": 2, "TYPE": "Sovereign country", "ADMIN": "Barbados", "ADM0_A3": "BRB", "GEOU_DIF": 0, "GEOUNIT": "Barbados", "GU_A3": "BRB", "SU_DIF": 0, "SUBUNIT": "Barbados", "SU_A3": "BRB", "BRK_DIFF": 0, "NAME": "Barbados", "NAME_LONG": "Barbados", "BRK_A3": "BRB", "BRK_NAME": "Barbados", "BRK_GROUP": null, "ABBREV": "Barb.", "POSTAL": "BB", "FORMAL_EN": "Barbados", "FORMAL_FR": null, "NAME_CIAWF": "Barbados", "NOTE_ADM0": null, "NOTE_BRK": null, "NAME_SORT": "Barbados", "NAME_ALT": null, "MAPCOLOR7": 4, "MAPCOLOR8": 1, "MAPCOLOR9": 5, "MAPCOLOR13": 3, "POP_EST": 292336.0, "POP_RANK": 10, "GDP_MD_EST": 4804.0, "POP_YEAR": 2017, "LASTCENSUS": 2010, "GDP_YEAR": 2016, "ECONOMY": "6. Developing region", "INCOME_GRP": "2. High income: nonOECD", "WIKIPEDIA": -99, "FIPS_10_": "BB", "ISO_A2": "BB", "ISO_A3": "BRB", "ISO_A3_EH": "BRB", "ISO_N3": "052", "UN_A3": "052", "WB_A2": "BB", "WB_A3": "BRB", "WOE_ID": 23424754, "WOE_ID_EH": 23424754, "WOE_NOTE": "Exact WOE match as country", "ADM0_A3_IS": "BRB", "ADM0_A3_US": "BRB", "ADM0_A3_UN": -99, "ADM0_A3_WB": -99, "CONTINENT": "North America", "REGION_UN": "Americas", "SUBREGION": "Caribbean", "REGION_WB": "Latin America & Caribbean", "NAME_LEN": 8, "LONG_LEN": 8, "ABBREV_LEN": 5, "TINY": 3, "HOMEPART": 1, "MIN_ZOOM": 0, "MIN_LABEL": 4.5, "MAX_LABEL": 9.5, "NE_ID": 1159320449.0, "WIKIDATAID": "Q244", "NAME_AR": "باربادوس", "NAME_BN": "বার্বাডোস", "NAME_DE": "Barbados", "NAME_EN": "Barbados", "NAME_ES": "Barbados", "NAME_FR": "Barbade", "NAME_EL": "Μπαρμπάντος", "NAME_HI": "बारबाडोस", "NAME_HU": "Barbados", "NAME_ID": "Barbados", "NAME_IT": "Barbados", "NAME_JA": "バルバドス", "NAME_KO": "바베이도스", "NAME_NL": "Barbados", "NAME_PL": "Barbados", "NAME_PT": "Barbados", "NAME_RU": "Барбадос", "NAME_SV": "Barbados", "NAME_TR": "Barbados", "NAME_VI": "Barbados", "NAME_ZH": "巴巴多斯" }, "geometry": { "type": "Point", "coordinates": [ -59.554305983838844, 13.174672374462602 ] } },
{ "type": "Feature", "properties": { "fid": 10.0, "scalerank": 2, "featurecla": "Admin-0 Tiny Countries", "sr_label_i": 2, "sr_label_o": 5, "LABELRANK": 5, "SOVEREIGNT": "Trinidad and Tobago", "SOV_A3": "TTO", "ADM0_DIF": 0, "LEVEL": 2, "TYPE": "Sovereign country", "ADMIN": "Trinidad and Tobago", "ADM0_A3": "TTO", "GEOU_DIF": 0, "GEOUNIT": "Trinidad and Tobago", "GU_A3": "TTO", "SU_DIF": 0, "SUBUNIT": "Trinidad and Tobago", "SU_A3": "TTO", "BRK_DIFF": 0, "NAME": "Trinidad and Tobago", "NAME_LONG": "Trinidad and Tobago", "BRK_A3": "TTO", "BRK_NAME": "Trinidad and Tobago", "BRK_GROUP": null, "ABBREV": "Tr.T.", "POSTAL": "TT", "FORMAL_EN": "Republic of Trinidad and Tobago", "FORMAL_FR": null, "NAME_CIAWF": "Trinidad and Tobago", "NOTE_ADM0": null, "NOTE_BRK": null, "NAME_SORT": "Trinidad and Tobago", "NAME_ALT": null, "MAPCOLOR7": 5, "MAPCOLOR8": 6, "MAPCOLOR9": 2, "MAPCOLOR13": 5, "POP_EST": 1218208.0, "POP_RANK": 12, "GDP_MD_EST": 43570.0, "POP_YEAR": 2017, "LASTCENSUS": 2011, "GDP_YEAR": 2016, "ECONOMY": "6. Developing region", "INCOME_GRP": "2. High income: nonOECD", "WIKIPEDIA": -99, "FIPS_10_": "TD", "ISO_A2": "TT", "ISO_A3": "TTO", "ISO_A3_EH": "TTO", "ISO_N3": "780", "UN_A3": "780", "WB_A2": "TT", "WB_A3": "TTO", "WOE_ID": 23424958, "WOE_ID_EH": 23424958, "WOE_NOTE": "Exact WOE match as country", "ADM0_A3_IS": "TTO", "ADM0_A3_US": "TTO", "ADM0_A3_UN": -99, "ADM0_A3_WB": -99, "CONTINENT": "North America", "REGION_UN": "Americas", "SUBREGION": "Caribbean", "REGION_WB": "Latin America & Caribbean", "NAME_LEN": 19, "LONG_LEN": 19, "ABBREV_LEN": 5, "TINY": 2, "HOMEPART": 1, "MIN_ZOOM": 0, "MIN_LABEL": 4.5, "MAX_LABEL": 9.5, "NE_ID": 1159321321.0, "WIKIDATAID": "Q754", "NAME_AR": "ترينيداد وتوباغو", "NAME_BN": "ত্রিনিদাদ ও টোবাগো", "NAME_DE": "Trinidad und Tobago", "NAME_EN": "Trinidad and Tobago", "NAME_ES": "Trinidad y Tobago", "NAME_FR": "Trinité-et-Tobago", "NAME_EL": "Τρινιντάντ και Τομπάγκο", "NAME_HI": "त्रिनिदाद और टोबैगो", "NAME_HU": "Trinidad és Tobago", "NAME_ID": "Trinidad dan Tobago", "NAME_IT": "Trinidad e Tobago", "NAME_JA": "トリニダード・トバゴ", "NAME_KO": "트리니다드 토바고", "NAME_NL": "Trinidad en Tobago", "NAME_PL": "Trynidad i Tobago", "NAME_PT": "Trinidad e Tobago", "NAME_RU": "Тринидад и Тобаго", "NAME_SV": "Trinidad och Tobago", "NAME_TR": "Trinidad ve Tobago", "NAME_VI": "Trinidad và Tobago", "NAME_ZH": "千里達及托巴哥" }, "geometry": { "type": "Point", "coordinates": [ -61.255188941565905, 10.43680324164859 ] } },
{ "type": "Feature", "properties": { "fid": 11.0, "scalerank": 2, "featurecla": "Admin-0 Tiny Countries", "sr_label_i": 3, "sr_label_o": 4, "LABELRANK": 6, "SOVEREIGNT": "São Tomé and Principe", "SOV_A3": "STP", "ADM0_DIF": 0, "LEVEL": 2, "TYPE": "Sovereign country", "ADMIN": "São Tomé and Principe", "ADM0_A3": "STP", "GEOU_DIF": 0, "GEOUNIT": "São Tomé and Principe", "GU_A3": "STP", "SU_DIF": 0, "SUBUNIT": "São Tomé and Principe", "SU_A3": "STP", "BRK_DIFF": 0, "NAME": "São Tomé and Principe", "NAME_LONG": "São Tomé and Principe", "BRK_A3": "STP", "BRK_NAME": "Sao Tome and Principe", "BRK_GROUP": null, "ABBREV": "S.T.P.", "POSTAL": "ST", "FORMAL_EN": "Democratic Republic of São Tomé and Principe", "FORMAL_FR": null, "NAME_CIAWF": "Sao Tome and Principe", "NOTE_ADM0": null, "NOTE_BRK": null, "NAME_SORT": "Sao Tome and Principe", "NAME_ALT": null, "MAPCOLOR7": 1, "MAPCOLOR8": 6, "MAPCOLOR9": 1, "MAPCOLOR13": 7, "POP_EST": 201025.0, "POP_RANK": 10, "GDP_MD_EST": 694.0, "POP_YEAR": 2017, "LASTCENSUS": 2001, "GDP_YEAR": 2016, "ECONOMY": "7. Least developed region", "INCOME_GRP": "4. Lower middle income", "WIKIPEDIA": -99, "FIPS_10_": "TP", "ISO_A2": "ST", "ISO_A3": "STP", "ISO_A3_EH": "STP", "ISO_N3": "678", "UN_A3": "678", "WB_A2": "ST", "WB_A3": "STP", "WOE_ID": 23424966, "WOE_ID_EH": 23424966, "WOE_NOTE": "Exact WOE match as country", "ADM0_A3_IS": "STP", "ADM0_A3_US": "STP", "ADM0_A3_UN": -99, "ADM0_A3_WB": -99, "CONTINENT": "Africa", "REGION_UN": "Africa", "SUBREGION": "Middle Africa", "REGION_WB": "Sub-Saharan Africa", "NAME_LEN": 21, "LONG_LEN": 21, "ABBREV_LEN": 6, "TINY": 3, "HOMEPART": 1, "MIN_ZOOM": 0, "MIN_LABEL": 5.0, "MAX_LABEL": 10.0, "NE_ID": 1159321273.0, "WIKIDATAID": "Q1039", "NAME_AR": "ساو تومي وبرينسيب", "NAME_BN": "সাঁউ তুমি ও প্রিন্সিপি", "NAME_DE": "São Tomé und Príncipe", "NAME_EN": "São Tomé and Príncipe", "NAME_ES": "Santo Tomé y Príncipe", "NAME_FR": "Sao Tomé-et-Principe", "NAME_EL": "Σάο Τομέ και Πρίνσιπε", "NAME_HI": "साओ तोमे और प्रिन्सिपी", "NAME_HU": "São Tomé és Príncipe", "NAME_ID": "Sao Tome dan Principe", "NAME_IT": "São Tomé e Príncipe", "NAME_JA": "サントメ・プリンシペ", "NAME_KO": "상투메 프린시페", "NAME_NL": "Sao Tomé en Principe", "NAME_PL": "Wyspy Świętego Tomasza i Książęca", "NAME_PT": "São Tomé e Príncipe", "NAME_RU": "Сан-Томе и Принсипи", "NAME_SV": "São Tomé och Príncipe", "NAME_TR": "São Tomé ve Príncipe", "NAME_VI": "São Tomé và Príncipe", "NAME_ZH": "圣多美和普林西比" }, "geometry": { "type": "Point", "coordinates": [ 6.617198520543866, 0.246806952308191 ] } },
{ "type": "Feature", "properties": { "fid": 12.0, "scalerank": 2, "featurecla": "Admin-0 Tiny Countries", "sr_label_i": 3, "sr_label_o": 6, "LABELRANK": 6, "SOVEREIGNT": "United Kingdom", "SOV_A3": "GB1", "ADM0_DIF": 1, "LEVEL": 4, "TYPE": "Geo subunit", "ADMIN": "Saint Helena", "ADM0_A3": "SHN", "GEOU_DIF": 0, "GEOUNIT": "Saint Helena", "GU_A3": "SHN", "SU_DIF": 1, "SUBUNIT": "Ascension", "SU_A3": "BAC", "BRK_DIFF": 0, "NAME": "Ascension", "NAME_LONG": "Ascension", "BRK_A3": "BAC", "BRK_NAME": "Ascension", "BRK_GROUP": null, "ABBREV": "Asc.", "POSTAL": "AS", "FORMAL_EN": null, "FORMAL_FR": null, "NAME_CIAWF": null, "NOTE_ADM0": "U.K.", "NOTE_BRK": null, "NAME_SORT": "Ascension", "NAME_ALT": null, "MAPCOLOR7": 6, "MAPCOLOR8": 6, "MAPCOLOR9": 6, "MAPCOLOR13": 3, "POP_EST": 963.03, "POP_RANK": 2, "GDP_MD_EST": 93.97, "POP_YEAR": 2017, "LASTCENSUS": -99, "GDP_YEAR": 2016, "ECONOMY": "6. Developing region", "INCOME_GRP": "4. Lower middle income", "WIKIPEDIA": -99, "FIPS_10_": "-99", "ISO_A2": "-99", "ISO_A3": "-99", "ISO_A3_EH": "-99", "ISO_N3": "-99", "UN_A3": "-099", "WB_A2": "-99", "WB_A3": "-99", "WOE_ID": 20069822, "WOE_ID_EH": 20069822, "WOE_NOTE": "WOE admin-1 (territory) match.", "ADM0_A3_IS": "SHN", "ADM0_A3_US": "SHN", "ADM0_A3_UN": -99, "ADM0_A3_WB": -99, "CONTINENT": "Seven seas (open ocean)", "REGION_UN": "Seven seas (open ocean)", "SUBREGION": "Seven seas (open ocean)", "REGION_WB": "Antarctica", "NAME_LEN": 9, "LONG_LEN": 9, "ABBREV_LEN": 4, "TINY": 3, "HOMEPART": -99, "MIN_ZOOM": 0, "MIN_LABEL": 5.0, "MAX_LABEL": 10.0, "NE_ID": 1159320751.0, "WIKIDATAID": "Q46197", "NAME_AR": "جزيرة أسينشين", "NAME_BN": "আসেনশন দ্বীপ", "NAME_DE": "Ascension", "NAME_EN": "Ascension Island", "NAME_ES": "Isla Ascensión", "NAME_FR": "île de l'Ascension", "NAME_EL": "Νήσος Αναλήψεως", "NAME_HI": "असेन्शियन द्वीप", "NAME_HU": "Ascension-sziget", "NAME_ID": "Ascension", "NAME_IT": "Isola di Ascensione", "NAME_JA": "アセンション島", "NAME_KO": "어센션 섬", "NAME_NL": "Ascension", "NAME_PL": "Wyspa Wniebowstąpienia", "NAME_PT": "Ilha de Ascensão", "NAME_RU": "Остров Вознесения", "NAME_SV": "Ascension", "NAME_TR": "Ascension Adası", "NAME_VI": "Đảo Ascension", "NAME_ZH": "阿森松岛" }, "geometry": { "type": "Point", "coordinates": [ -14.362068334482444, -7.939246540570252 ] } },
{ "type": "Feature", "properties": { "fid": 13.0, "scalerank": 2, "featurecla": "Admin-0 Tiny Countries", "sr_label_i": 2, "sr_label_o": 6, "LABELRANK": 6, "SOVEREIGNT": "United Kingdom", "SOV_A3": "GB1", "ADM0_DIF": 1, "LEVEL": 2, "TYPE": "Dependency", "ADMIN": "Saint Helena", "ADM0_A3": "SHN", "GEOU_DIF": 0, "GEOUNIT": "Saint Helena", "GU_A3": "SHN", "SU_DIF": 0, "SUBUNIT": "Saint Helena", "SU_A3": "SHN", "BRK_DIFF": 0, "NAME": "Saint Helena", "NAME_LONG": "Saint Helena", "BRK_A3": "SHN", "BRK_NAME": "Saint Helena", "BRK_GROUP": null, "ABBREV": "St.H.", "POSTAL": "SH", "FORMAL_EN": null, "FORMAL_FR": null, "NAME_CIAWF": "Saint Helena, Ascension, and Tristan da Cunha", "NOTE_ADM0": "U.K.", "NOTE_BRK": null, "NAME_SORT": "St. Helena", "NAME_ALT": null, "MAPCOLOR7": 6, "MAPCOLOR8": 6, "MAPCOLOR9": 6, "MAPCOLOR13": 3, "POP_EST": 7828.0, "POP_RANK": 5, "GDP_MD_EST": 31.1, "POP_YEAR": 2017, "LASTCENSUS": -99, "GDP_YEAR": 2010, "ECONOMY": "6. Developing region", "INCOME_GRP": "4. Lower middle income", "WIKIPEDIA": -99, "FIPS_10_": "SH", "ISO_A2": "SH", "ISO_A3": "SHN", "ISO_A3_EH": "SHN", "ISO_N3": "654", "UN_A3": "654", "WB_A2": "-99", "WB_A3": "-99", "WOE_ID": 23424944, "WOE_ID_EH": 23424944, "WOE_NOTE": "Exact WOE match as country", "ADM0_A3_IS": "SHN", "ADM0_A3_US": "SHN", "ADM0_A3_UN": -99, "ADM0_A3_WB": -99, "CONTINENT": "Seven seas (open ocean)", "REGION_UN": "Africa", "SUBREGION": "Western Africa", "REGION_WB": "Sub-Saharan Africa", "NAME_LEN": 12, "LONG_LEN": 12, "ABBREV_LEN": 5, "TINY": -99, "HOMEPART": -99, "MIN_ZOOM": 0, "MIN_LABEL": 5.0, "MAX_LABEL": 10.0, "NE_ID": 1159320733.0, "WIKIDATAID": "Q34497", "NAME_AR": "سانت هيلينا", "NAME_BN": "সেন্ট হেলেনা", "NAME_DE": "St. Helena", "NAME_EN": "Saint Helena", "NAME_ES": "Isla Santa Elena", "NAME_FR": "Sainte-Hélène", "NAME_EL": "Νήσος Αγίας Ελένης", "NAME_HI": "सन्त हेलेना", "NAME_HU": "Szent Ilona", "NAME_ID": "Saint Helena", "NAME_IT": "Sant'Elena", "NAME_JA": "セントヘレナ", "NAME_KO": "세인트헬레나", "NAME_NL": "Sint-Helena", "NAME_PL": "Wyspa Świętej Heleny", "NAME_PT": "Santa Helena", "NAME_RU": "Остров Святой Елены", "NAME_SV": "Sankta Helena", "NAME_TR": "Saint Helena", "NAME_VI": "Saint Helena", "NAME_ZH": "圣赫勒拿岛" }, "geometry": { "type": "Point", "coordinates": [ -5.716296101395358, -15.963221612123107 ] } },
{ "type": "Feature", "properties": { "fid": 14.0, "scalerank": 2, "featurecla": "Admin-0 Tiny Countries", "sr_label_i": 3, "sr_label_o": 5, "LABELRANK": 5, "SOVEREIGNT": "Malta", "SOV_A3": "MLT", "ADM0_DIF": 0, "LEVEL": 2, "TYPE": "Sovereign country", "ADMIN": "Malta", "ADM0_A3": "MLT", "GEOU_DIF": 0, "GEOUNIT": "Malta", "GU_A3": "MLT", "SU_DIF": 0, "SUBUNIT": "Malta", "SU_A3": "MLT", "BRK_DIFF": 0, "NAME": "Malta", "NAME_LONG": "Malta", "BRK_A3": "MLT", "BRK_NAME": "Malta", "BRK_GROUP": null, "ABBREV": "Malta", "POSTAL": "M", "FORMAL_EN": "Republic of Malta", "FORMAL_FR": null, "NAME_CIAWF": "Malta", "NOTE_ADM0": null, "NOTE_BRK": null, "NAME_SORT": "Malta", "NAME_ALT": null, "MAPCOLOR7": 1, "MAPCOLOR8": 4, "MAPCOLOR9": 1, "MAPCOLOR13": 8, "POP_EST": 416338.0, "POP_RANK": 10, "GDP_MD_EST": 16320.0, "POP_YEAR": 2017, "LASTCENSUS": 2005, "GDP_YEAR": 2016, "ECONOMY": "2. Developed region: nonG7", "INCOME_GRP": "2. High income: nonOECD", "WIKIPEDIA": -99, "FIPS_10_": "MT", "ISO_A2": "MT", "ISO_A3": "MLT", "ISO_A3_EH": "MLT", "ISO_N3": "470", "UN_A3": "470", "WB_A2": "MT", "WB_A3": "MLT", "WOE_ID": 23424897, "WOE_ID_EH": 23424897, "WOE_NOTE": "Exact WOE match as country", "ADM0_A3_IS": "MLT", "ADM0_A3_US": "MLT", "ADM0_A3_UN": -99, "ADM0_A3_WB": -99, "CONTINENT": "Europe", "REGION_UN": "Europe", "SUBREGION": "Southern Europe", "REGION_WB": "Middle East & North Africa", "NAME_LEN": 5, "LONG_LEN": 5, "ABBREV_LEN": 5, "TINY": 3, "HOMEPART": 1, "MIN_ZOOM": 0, "MIN_LABEL": 4.0, "MAX_LABEL": 9.0, "NE_ID": 1159321065.0, "WIKIDATAID": "Q233", "NAME_AR": "مالطا", "NAME_BN": "মাল্টা", "NAME_DE": "Malta", "NAME_EN": "Malta", "NAME_ES": "Malta", "NAME_FR": "Malte", "NAME_EL": "Μάλτα", "NAME_HI": "माल्टा", "NAME_HU": "Málta", "NAME_ID": "Malta", "NAME_IT": "Malta", "NAME_JA": "マルタ", "NAME_KO": "몰타", "NAME_NL": "Malta", "NAME_PL": "Malta", "NAME_PT": "Malta", "NAME_RU": "Мальта", "NAME_SV": "Malta", "NAME_TR": "Malta", "NAME_VI": "Malta", "NAME_ZH": "马耳他" }, "geometry": { "type": "Point", "coordinates": [ 14.438179478988388, 35.882081031796645 ] } },
{ "type": "Feature", "properties": { "fid": 15.0, "scalerank": 2, "featurecla": "Admin-0 Tiny Countries", "sr_label_i": 2, "sr_label_o": 2, "LABELRANK": 4, "SOVEREIGNT": "Bahrain", "SOV_A3": "BHR", "ADM0_DIF": 0, "LEVEL": 2, "TYPE": "Sovereign country", "ADMIN": "Bahrain", "ADM0_A3": "BHR", "GEOU_DIF": 0, "GEOUNIT": "Bahrain", "GU_A3": "BHR", "SU_DIF": 0, "SUBUNIT": "Bahrain", "SU_A3": "BHR", "BRK_DIFF": 0, "NAME": "Bahrain", "NAME_LONG": "Bahrain", "BRK_A3": "BHR", "BRK_NAME": "Bahrain", "BRK_GROUP": null, "ABBREV": "Bahr.", "POSTAL": "BH", "FORMAL_EN": "Kingdom of Bahrain", "FORMAL_FR": null, "NAME_CIAWF": "Bahrain", "NOTE_ADM0": null, "NOTE_BRK": null, "NAME_SORT": "Bahrain", "NAME_ALT": null, "MAPCOLOR7": 1, "MAPCOLOR8": 1, "MAPCOLOR9": 1, "MAPCOLOR13": 9, "POP_EST": 1410942.0, "POP_RANK": 12, "GDP_MD_EST": 66370.0, "POP_YEAR": 2017, "LASTCENSUS": 2010, "GDP_YEAR": 2016, "ECONOMY": "6. Developing region", "INCOME_GRP": "2. High income: nonOECD", "WIKIPEDIA": -99, "FIPS_10_": "BA", "ISO_A2": "BH", "ISO_A3": "BHR", "ISO_A3_EH": "BHR", "ISO_N3": "048", "UN_A3": "048", "WB_A2": "BH", "WB_A3": "BHR", "WOE_ID": 23424753, "WOE_ID_EH": 23424753, "WOE_NOTE": "Exact WOE match as country", "ADM0_A3_IS": "BHR", "ADM0_A3_US": "BHR", "ADM0_A3_UN": -99, "ADM0_A3_WB": -99, "CONTINENT": "Asia", "REGION_UN": "Asia", "SUBREGION": "Western Asia", "REGION_WB": "Middle East & North Africa", "NAME_LEN": 7, "LONG_LEN": 7, "ABBREV_LEN": 5, "TINY": 2, "HOMEPART": 1, "MIN_ZOOM": 0, "MIN_LABEL": 4.0, "MAX_LABEL": 9.0, "NE_ID": 1159320413.0, "WIKIDATAID": "Q398", "NAME_AR": "البحرين", "NAME_BN": "বাহরাইন", "NAME_DE": "Bahrain", "NAME_EN": "Bahrain", "NAME_ES": "Baréin", "NAME_FR": "Bahreïn", "NAME_EL": "Μπαχρέιν", "NAME_HI": "बहरीन", "NAME_HU": "Bahrein", "NAME_ID": "Bahrain", "NAME_IT": "Bahrein", "NAME_JA": "バーレーン", "NAME_KO": "바레인", "NAME_NL": "Bahrein", "NAME_PL": "Bahrajn", "NAME_PT": "Bahrein", "NAME_RU": "Бахрейн", "NAME_SV": "Bahrain", "NAME_TR": "Bahreyn", "NAME_VI": "Bahrain", "NAME_ZH": "巴林" }, "geometry": { "type": "Point", "coordinates": [ 50.553638136605002, 26.06944265390905 ] } },
{ "type": "Feature", "properties": { "fid": 16.0, "scalerank": 2, "featurecla": "Admin-0 Tiny Countries", "sr_label_i": 2, "sr_label_o": 4, "LABELRANK": 5, "SOVEREIGNT": "Maldives", "SOV_A3": "MDV", "ADM0_DIF": 0, "LEVEL": 2, "TYPE": "Sovereign country", "ADMIN": "Maldives", "ADM0_A3": "MDV", "GEOU_DIF": 0, "GEOUNIT": "Maldives", "GU_A3": "MDV", "SU_DIF": 0, "SUBUNIT": "Maldives", "SU_A3": "MDV", "BRK_DIFF": 0, "NAME": "Maldives", "NAME_LONG": "Maldives", "BRK_A3": "MDV", "BRK_NAME": "Maldives", "BRK_GROUP": null, "ABBREV": "Mald.", "POSTAL": "MV", "FORMAL_EN": "Republic of Maldives", "FORMAL_FR": null, "NAME_CIAWF": "Maldives", "NOTE_ADM0": null, "NOTE_BRK": null, "NAME_SORT": "Maldives", "NAME_ALT": null, "MAPCOLOR7": 2, "MAPCOLOR8": 3, "MAPCOLOR9": 1, "MAPCOLOR13": 7, "POP_EST": 392709.0, "POP_RANK": 10, "GDP_MD_EST": 5407.0, "POP_YEAR": 2017, "LASTCENSUS": 2011, "GDP_YEAR": 2016, "ECONOMY": "6. Developing region", "INCOME_GRP": "3. Upper middle income", "WIKIPEDIA": -99, "FIPS_10_": "MV", "ISO_A2": "MV", "ISO_A3": "MDV", "ISO_A3_EH": "MDV", "ISO_N3": "462", "UN_A3": "462", "WB_A2": "MV", "WB_A3": "MDV", "WOE_ID": 23424899, "WOE_ID_EH": 23424899, "WOE_NOTE": "Exact WOE match as country", "ADM0_A3_IS": "MDV", "ADM0_A3_US": "B13", "ADM0_A3_UN": -99, "ADM0_A3_WB": -99, "CONTINENT": "Seven seas (open ocean)", "REGION_UN": "Asia", "SUBREGION": "Southern Asia", "REGION_WB": "South Asia", "NAME_LEN": 8, "LONG_LEN": 8, "ABBREV_LEN": 5, "TINY": 2, "HOMEPART": 1, "MIN_ZOOM": 0, "MIN_LABEL": 4.0, "MAX_LABEL": 9.0, "NE_ID": 1159321053.0, "WIKIDATAID": "Q826", "NAME_AR": "جزر المالديف", "NAME_BN": "মালদ্বীপ", "NAME_DE": "Malediven", "NAME_EN": "Maldives", "NAME_ES": "Maldivas", "NAME_FR": "Maldives", "NAME_EL": "Μαλδίβες", "NAME_HI": "मालदीव", "NAME_HU": "Maldív-szigetek", "NAME_ID": "Maladewa", "NAME_IT": "Maldive", "NAME_JA": "モルディブ", "NAME_KO": "몰디브", "NAME_NL": "Maldiven", "NAME_PL": "Malediwy", "NAME_PT": "Maldivas", "NAME_RU": "Мальдивы", "NAME_SV": "Maldiverna", "NAME_TR": "Maldivler", "NAME_VI": "Maldives", "NAME_ZH": "马尔代夫" }, "geometry": { "type": "Point", "coordinates": [ 73.50223056083513, 4.186658727806048 ] } },
{ "type": "Feature", "properties": { "fid": 17.0, "scalerank": 2, "featurecla": "Admin-0 Tiny Countries", "sr_label_i": 2, "sr_label_o": 6, "LABELRANK": 5, "SOVEREIGNT": "United Kingdom", "SOV_A3": "GB1", "ADM0_DIF": 1, "LEVEL": 2, "TYPE": "Dependency", "ADMIN": "British Indian Ocean Territory", "ADM0_A3": "IOT", "GEOU_DIF": 0, "GEOUNIT": "British Indian Ocean Territory", "GU_A3": "IOT", "SU_DIF": 0, "SUBUNIT": "British Indian Ocean Territory", "SU_A3": "IOT", "BRK_DIFF": 1, "NAME": "Br. Indian Ocean Ter.", "NAME_LONG": "British Indian Ocean Territory", "BRK_A3": "B69", "BRK_NAME": "Br. Indian Ocean Ter.", "BRK_GROUP": null, "ABBREV": "I.O.T.", "POSTAL": "IO", "FORMAL_EN": null, "FORMAL_FR": null, "NAME_CIAWF": null, "NOTE_ADM0": "U.K.", "NOTE_BRK": "Admin. by U.K.; Claimed by Mauritius and Seychelles", "NAME_SORT": "British Indian Ocean Territory", "NAME_ALT": null, "MAPCOLOR7": 6, "MAPCOLOR8": 6, "MAPCOLOR9": 6, "MAPCOLOR13": 3, "POP_EST": 4000.0, "POP_RANK": 4, "GDP_MD_EST": 160.0, "POP_YEAR": 2013, "LASTCENSUS": -99, "GDP_YEAR": 2013, "ECONOMY": "2. Developed region: nonG7", "INCOME_GRP": "2. High income: nonOECD", "WIKIPEDIA": -99, "FIPS_10_": "IO", "ISO_A2": "IO", "ISO_A3": "IOT", "ISO_A3_EH": "IOT", "ISO_N3": "086", "UN_A3": "-099", "WB_A2": "-99", "WB_A3": "-99", "WOE_ID": 23424849, "WOE_ID_EH": 23424849, "WOE_NOTE": "Exact WOE match as country", "ADM0_A3_IS": "IOT", "ADM0_A3_US": "IOT", "ADM0_A3_UN": -99, "ADM0_A3_WB": -99, "CONTINENT": "Seven seas (open ocean)", "REGION_UN": "Seven seas (open ocean)", "SUBREGION": "Seven seas (open ocean)", "REGION_WB": "Sub-Saharan Africa", "NAME_LEN": 21, "LONG_LEN": 30, "ABBREV_LEN": 6, "TINY": 5, "HOMEPART": -99, "MIN_ZOOM": 0, "MIN_LABEL": 5.0, "MAX_LABEL": 9.5, "NE_ID": 1159320723.0, "WIKIDATAID": "Q43448", "NAME_AR": "إقليم المحيط الهندي البريطاني", "NAME_BN": "ব্রিটিশ ভারত মহাসাগরীয় এলাকা", "NAME_DE": "Britisches Territorium im Indischen Ozean", "NAME_EN": "British Indian Ocean Territory", "NAME_ES": "Territorio Británico del Océano Índico", "NAME_FR": "Territoire britannique de l'océan Indien", "NAME_EL": "Βρετανικό Έδαφος Ινδικού Ωκεανού", "NAME_HI": "ब्रिटिश हिंद महासागर क्षेत्र", "NAME_HU": "Brit Indiai-óceáni Terület", "NAME_ID": "Wilayah Samudra Hindia Britania", "NAME_IT": "Territorio britannico dell'oceano Indiano", "NAME_JA": "イギリス領インド洋地域", "NAME_KO": "영국령 인도양 지역", "NAME_NL": "Brits Indische Oceaanterritorium", "NAME_PL": "Brytyjskie Terytorium Oceanu Indyjskiego", "NAME_PT": "Território Britânico do Oceano Índico", "NAME_RU": "Британская территория в Индийском океане", "NAME_SV": "Brittiska territoriet i Indiska oceanen", "NAME_TR": "Britanya Hint Okyanusu Toprakları", "NAME_VI": "Lãnh thổ Ấn Độ Dương thuộc Anh", "NAME_ZH": "英屬印度洋領地" }, "geometry": { "type": "Point", "coordinates": [ 72.478729494182573, -7.340705873210993 ] } },
{ "type": "Feature", "properties": { "fid": 18.0, "scalerank": 2, "featurecla": "Admin-0 Tiny Countries", "sr_label_i": 3, "sr_label_o": 3, "LABELRANK": 6, "SOVEREIGNT": "Singapore", "SOV_A3": "SGP", "ADM0_DIF": 0, "LEVEL": 2, "TYPE": "Sovereign country", "ADMIN": "Singapore", "ADM0_A3": "SGP", "GEOU_DIF": 0, "GEOUNIT": "Singapore", "GU_A3": "SGP", "SU_DIF": 0, "SUBUNIT": "Singapore", "SU_A3": "SGP", "BRK_DIFF": 0, "NAME": "Singapore", "NAME_LONG": "Singapore", "BRK_A3": "SGP", "BRK_NAME": "Singapore", "BRK_GROUP": null, "ABBREV": "Sing.", "POSTAL": "SG", "FORMAL_EN": "Republic of Singapore", "FORMAL_FR": null, "NAME_CIAWF": "Singapore", "NOTE_ADM0": null, "NOTE_BRK": null, "NAME_SORT": "Singapore", "NAME_ALT": null, "MAPCOLOR7": 5, "MAPCOLOR8": 3, "MAPCOLOR9": 7, "MAPCOLOR13": 3, "POP_EST": 5888926.0, "POP_RANK": 13, "GDP_MD_EST": 487900.0, "POP_YEAR": 2017, "LASTCENSUS": 2010, "GDP_YEAR": 2016, "ECONOMY": "6. Developing region", "INCOME_GRP": "2. High income: nonOECD", "WIKIPEDIA": -99, "FIPS_10_": "SN", "ISO_A2": "SG", "ISO_A3": "SGP", "ISO_A3_EH": "SGP", "ISO_N3": "702", "UN_A3": "702", "WB_A2": "SG", "WB_A3": "SGP", "WOE_ID": 23424948, "WOE_ID_EH": 23424948, "WOE_NOTE": "Exact WOE match as country", "ADM0_A3_IS": "SGP", "ADM0_A3_US": "SGP", "ADM0_A3_UN": -99, "ADM0_A3_WB": -99, "CONTINENT": "Asia", "REGION_UN": "Asia", "SUBREGION": "South-Eastern Asia", "REGION_WB": "East Asia & Pacific", "NAME_LEN": 9, "LONG_LEN": 9, "ABBREV_LEN": 5, "TINY": 3, "HOMEPART": 1, "MIN_ZOOM": 0, "MIN_LABEL": 4.0, "MAX_LABEL": 9.0, "NE_ID": 1159321247.0, "WIKIDATAID": "Q334", "NAME_AR": "سنغافورة", "NAME_BN": "সিঙ্গাপুর", "NAME_DE": "Singapur", "NAME_EN": "Singapore", "NAME_ES": "Singapur", "NAME_FR": "Singapour", "NAME_EL": "Σιγκαπούρη", "NAME_HI": "सिंगापुर", "NAME_HU": "Szingapúr", "NAME_ID": "Singapura", "NAME_IT": "Singapore", "NAME_JA": "シンガポール", "NAME_KO": "싱가포르", "NAME_NL": "Singapore", "NAME_PL": "Singapur", "NAME_PT": "Singapura", "NAME_RU": "Сингапур", "NAME_SV": "Singapore", "NAME_TR": "Singapur", "NAME_VI": "Singapore", "NAME_ZH": "新加坡" }, "geometry": { "type": "Point", "coordinates": [ 103.814819829003227, 1.359363931813562 ] } },
{ "type": "Feature", "properties": { "fid": 19.0, "scalerank": 2, "featurecla": "Admin-0 Tiny Countries", "sr_label_i": 2, "sr_label_o": 2, "LABELRANK": 6, "SOVEREIGNT": "Brunei", "SOV_A3": "BRN", "ADM0_DIF": 0, "LEVEL": 2, "TYPE": "Sovereign country", "ADMIN": "Brunei", "ADM0_A3": "BRN", "GEOU_DIF": 0, "GEOUNIT": "Brunei", "GU_A3": "BRN", "SU_DIF": 0, "SUBUNIT": "Brunei", "SU_A3": "BRN", "BRK_DIFF": 0, "NAME": "Brunei", "NAME_LONG": "Brunei Darussalam", "BRK_A3": "BRN", "BRK_NAME": "Brunei", "BRK_GROUP": null, "ABBREV": "Brunei", "POSTAL": "BN", "FORMAL_EN": "Negara Brunei Darussalam", "FORMAL_FR": null, "NAME_CIAWF": "Brunei", "NOTE_ADM0": null, "NOTE_BRK": null, "NAME_SORT": "Brunei", "NAME_ALT": null, "MAPCOLOR7": 4, "MAPCOLOR8": 6, "MAPCOLOR9": 6, "MAPCOLOR13": 12, "POP_EST": 443593.0, "POP_RANK": 10, "GDP_MD_EST": 33730.0, "POP_YEAR": 2017, "LASTCENSUS": 2001, "GDP_YEAR": 2016, "ECONOMY": "6. Developing region", "INCOME_GRP": "2. High income: nonOECD", "WIKIPEDIA": -99, "FIPS_10_": "BX", "ISO_A2": "BN", "ISO_A3": "BRN", "ISO_A3_EH": "BRN", "ISO_N3": "096", "UN_A3": "096", "WB_A2": "BN", "WB_A3": "BRN", "WOE_ID": 23424773, "WOE_ID_EH": 23424773, "WOE_NOTE": "Exact WOE match as country", "ADM0_A3_IS": "BRN", "ADM0_A3_US": "BRN", "ADM0_A3_UN": -99, "ADM0_A3_WB": -99, "CONTINENT": "Asia", "REGION_UN": "Asia", "SUBREGION": "South-Eastern Asia", "REGION_WB": "East Asia & Pacific", "NAME_LEN": 6, "LONG_LEN": 17, "ABBREV_LEN": 6, "TINY": 2, "HOMEPART": 1, "MIN_ZOOM": 0, "MIN_LABEL": 4.0, "MAX_LABEL": 9.0, "NE_ID": 1159320451.0, "WIKIDATAID": "Q921", "NAME_AR": "بروناي", "NAME_BN": "ব্রুনাই", "NAME_DE": "Brunei", "NAME_EN": "Brunei", "NAME_ES": "Brunéi", "NAME_FR": "Brunei", "NAME_EL": "Μπρουνέι", "NAME_HI": "ब्रुनेई", "NAME_HU": "Brunei", "NAME_ID": "Brunei Darussalam", "NAME_IT": "Brunei", "NAME_JA": "ブルネイ", "NAME_KO": "브루나이", "NAME_NL": "Brunei", "NAME_PL": "Brunei", "NAME_PT": "Brunei", "NAME_RU": "Бруней", "NAME_SV": "Brunei", "NAME_TR": "Brunei", "NAME_VI": "Brunei", "NAME_ZH": "文莱" }, "geometry": { "type": "Point", "coordinates": [ 114.567454603389251, 4.434669496170784 ] } },
{ "type": "Feature", "properties": { "fid": 20.0, "scalerank": 2, "featurecla": "Admin-0 Tiny Countries", "sr_label_i": 2, "sr_label_o": 6, "LABELRANK": 6, "SOVEREIGNT": "Palau", "SOV_A3": "PLW", "ADM0_DIF": 0, "LEVEL": 2, "TYPE": "Sovereign country", "ADMIN": "Palau", "ADM0_A3": "PLW", "GEOU_DIF": 0, "GEOUNIT": "Palau", "GU_A3": "PLW", "SU_DIF": 0, "SUBUNIT": "Palau", "SU_A3": "PLW", "BRK_DIFF": 0, "NAME": "Palau", "NAME_LONG": "Palau", "BRK_A3": "PLW", "BRK_NAME": "Palau", "BRK_GROUP": null, "ABBREV": "Palau", "POSTAL": "PW", "FORMAL_EN": "Republic of Palau", "FORMAL_FR": null, "NAME_CIAWF": "Palau", "NOTE_ADM0": null, "NOTE_BRK": null, "NAME_SORT": "Palau", "NAME_ALT": null, "MAPCOLOR7": 2, "MAPCOLOR8": 5, "MAPCOLOR9": 1, "MAPCOLOR13": 12, "POP_EST": 21431.0, "POP_RANK": 7, "GDP_MD_EST": 276.0, "POP_YEAR": 2017, "LASTCENSUS": 2010, "GDP_YEAR": 2016, "ECONOMY": "6. Developing region", "INCOME_GRP": "3. Upper middle income", "WIKIPEDIA": -99, "FIPS_10_": "PS", "ISO_A2": "PW", "ISO_A3": "PLW", "ISO_A3_EH": "PLW", "ISO_N3": "585", "UN_A3": "585", "WB_A2": "PW", "WB_A3": "PLW", "WOE_ID": 23424927, "WOE_ID_EH": 23424927, "WOE_NOTE": "Exact WOE match as country", "ADM0_A3_IS": "PLW", "ADM0_A3_US": "PLW", "ADM0_A3_UN": -99, "ADM0_A3_WB": -99, "CONTINENT": "Oceania", "REGION_UN": "Oceania", "SUBREGION": "Micronesia", "REGION_WB": "East Asia & Pacific", "NAME_LEN": 5, "LONG_LEN": 5, "ABBREV_LEN": 5, "TINY": 2, "HOMEPART": 1, "MIN_ZOOM": 0, "MIN_LABEL": 5.0, "MAX_LABEL": 10.0, "NE_ID": 1159321171.0, "WIKIDATAID": "Q695", "NAME_AR": "بالاو", "NAME_BN": "পালাউ", "NAME_DE": "Palau", "NAME_EN": "Palau", "NAME_ES": "Palaos", "NAME_FR": "Palaos", "NAME_EL": "Παλάου", "NAME_HI": "पलाउ", "NAME_HU": "Palau", "NAME_ID": "Palau", "NAME_IT": "Palau", "NAME_JA": "パラオ", "NAME_KO": "팔라우", "NAME_NL": "Palau", "NAME_PL": "Palau", "NAME_PT": "Palau", "NAME_RU": "Палау", "NAME_SV": "Palau", "NAME_TR": "Palau", "NAME_VI": "Palau", "NAME_ZH": "帛琉" }, "geometry": { "type": "Point", "coordinates": [ 134.579241336207929, 7.507494163314107 ] } },
{ "type": "Feature", "properties": { "fid": 21.0, "scalerank": 2, "featurecla": "Admin-0 Tiny Countries", "sr_label_i": 3, "sr_label_o": 6, "LABELRANK": 6, "SOVEREIGNT": "United States of America", "SOV_A3": "US1", "ADM0_DIF": 1, "LEVEL": 2, "TYPE": "Dependency", "ADMIN": "Northern Mariana Islands", "ADM0_A3": "MNP", "GEOU_DIF": 0, "GEOUNIT": "Northern Mariana Islands", "GU_A3": "MNP", "SU_DIF": 0, "SUBUNIT": "Northern Mariana Islands", "SU_A3": "MNP", "BRK_DIFF": 0, "NAME": "N. Mariana Is.", "NAME_LONG": "Northern Mariana Islands", "BRK_A3": "MNP", "BRK_NAME": "N. Mariana Is.", "BRK_GROUP": null, "ABBREV": "N.M.I.", "POSTAL": "MP", "FORMAL_EN": "Commonwealth of the Northern Mariana Islands", "FORMAL_FR": null, "NAME_CIAWF": "Northern Mariana Islands", "NOTE_ADM0": "Commonwealth of U.S.A.", "NOTE_BRK": null, "NAME_SORT": "Northern Mariana Islands", "NAME_ALT": null, "MAPCOLOR7": 4, "MAPCOLOR8": 5, "MAPCOLOR9": 1, "MAPCOLOR13": 1, "POP_EST": 52263.0, "POP_RANK": 8, "GDP_MD_EST": 682.0, "POP_YEAR": 2017, "LASTCENSUS": 2010, "GDP_YEAR": 2013, "ECONOMY": "6. Developing region", "INCOME_GRP": "2. High income: nonOECD", "WIKIPEDIA": -99, "FIPS_10_": "CQ", "ISO_A2": "MP", "ISO_A3": "MNP", "ISO_A3_EH": "MNP", "ISO_N3": "580", "UN_A3": "580", "WB_A2": "MP", "WB_A3": "MNP", "WOE_ID": 23424788, "WOE_ID_EH": 23424788, "WOE_NOTE": "Exact WOE match as country", "ADM0_A3_IS": "MNP", "ADM0_A3_US": "MNP", "ADM0_A3_UN": -99, "ADM0_A3_WB": -99, "CONTINENT": "Oceania", "REGION_UN": "Oceania", "SUBREGION": "Micronesia", "REGION_WB": "East Asia & Pacific", "NAME_LEN": 14, "LONG_LEN": 24, "ABBREV_LEN": 6, "TINY": 3, "HOMEPART": -99, "MIN_ZOOM": 0, "MIN_LABEL": 5.0, "MAX_LABEL": 10.0, "NE_ID": 1159321361.0, "WIKIDATAID": "Q16644", "NAME_AR": "جزر ماريانا الشمالية", "NAME_BN": "উত্তর মারিয়ানা দ্বীপপুঞ্জ", "NAME_DE": "Nördliche Marianen", "NAME_EN": "Northern Mariana Islands", "NAME_ES": "Islas Marianas del Norte", "NAME_FR": "îles Mariannes du Nord", "NAME_EL": "Βόρειες Μαριάνες Νήσοι", "NAME_HI": "उत्तरी मारियाना द्वीप", "NAME_HU": "Északi-Mariana-szigetek", "NAME_ID": "Kepulauan Mariana Utara", "NAME_IT": "Isole Marianne Settentrionali", "NAME_JA": "北マリアナ諸島", "NAME_KO": "북마리아나 제도", "NAME_NL": "Noordelijke Marianen", "NAME_PL": "Mariany Północne", "NAME_PT": "Marianas Setentrionais", "NAME_RU": "Северные Марианские острова", "NAME_SV": "Nordmarianerna", "NAME_TR": "Kuzey Mariana Adaları", "NAME_VI": "Quần đảo Bắc Mariana", "NAME_ZH": "北马里亚纳群岛" }, "geometry": { "type": "Point", "coordinates": [ 145.739263327247045, 15.17463695328189 ] } },
{ "type": "Feature", "properties": { "fid": 22.0, "scalerank": 2, "featurecla": "Admin-0 Tiny Countries", "sr_label_i": 2, "sr_label_o": 6, "LABELRANK": 6, "SOVEREIGNT": "United States of America", "SOV_A3": "US1", "ADM0_DIF": 1, "LEVEL": 2, "TYPE": "Dependency", "ADMIN": "Guam", "ADM0_A3": "GUM", "GEOU_DIF": 0, "GEOUNIT": "Guam", "GU_A3": "GUM", "SU_DIF": 0, "SUBUNIT": "Guam", "SU_A3": "GUM", "BRK_DIFF": 0, "NAME": "Guam", "NAME_LONG": "Guam", "BRK_A3": "GUM", "BRK_NAME": "Guam", "BRK_GROUP": null, "ABBREV": "Guam", "POSTAL": "GU", "FORMAL_EN": "Territory of Guam", "FORMAL_FR": null, "NAME_CIAWF": "Guam", "NOTE_ADM0": "U.S.A.", "NOTE_BRK": null, "NAME_SORT": "Guam", "NAME_ALT": null, "MAPCOLOR7": 4, "MAPCOLOR8": 5, "MAPCOLOR9": 1, "MAPCOLOR13": 1, "POP_EST": 167358.0, "POP_RANK": 9, "GDP_MD_EST": 4882.0, "POP_YEAR": 2017, "LASTCENSUS": 2010, "GDP_YEAR": 2013, "ECONOMY": "6. Developing region", "INCOME_GRP": "2. High income: nonOECD", "WIKIPEDIA": -99, "FIPS_10_": "GQ", "ISO_A2": "GU", "ISO_A3": "GUM", "ISO_A3_EH": "GUM", "ISO_N3": "316", "UN_A3": "316", "WB_A2": "GU", "WB_A3": "GUM", "WOE_ID": 23424832, "WOE_ID_EH": 23424832, "WOE_NOTE": "Exact WOE match as country", "ADM0_A3_IS": "GUM", "ADM0_A3_US": "GUM", "ADM0_A3_UN": -99, "ADM0_A3_WB": -99, "CONTINENT": "Oceania", "REGION_UN": "Oceania", "SUBREGION": "Micronesia", "REGION_WB": "East Asia & Pacific", "NAME_LEN": 4, "LONG_LEN": 4, "ABBREV_LEN": 4, "TINY": 2, "HOMEPART": -99, "MIN_ZOOM": 0, "MIN_LABEL": 3.0, "MAX_LABEL": 10.0, "NE_ID": 1159321359.0, "WIKIDATAID": "Q16635", "NAME_AR": "غوام", "NAME_BN": "গুয়াম", "NAME_DE": "Guam", "NAME_EN": "Guam", "NAME_ES": "Guam", "NAME_FR": "Guam", "NAME_EL": "Γκουάμ", "NAME_HI": "गुआम", "NAME_HU": "Guam", "NAME_ID": "Guam", "NAME_IT": "Guam", "NAME_JA": "グアム", "NAME_KO": "괌", "NAME_NL": "Guam", "NAME_PL": "Guam", "NAME_PT": "Guam", "NAME_RU": "Гуам", "NAME_SV": "Guam", "NAME_TR": "Guam", "NAME_VI": "Guam", "NAME_ZH": "關島" }, "geometry": { "type": "Point", "coordinates": [ 144.77003842181864, 13.459684857600507 ] } },
{ "type": "Feature", "properties": { "fid": 23.0, "scalerank": 2, "featurecla": "Admin-0 Tiny Countries", "sr_label_i": 3, "sr_label_o": 6, "LABELRANK": 6, "SOVEREIGNT": "Federated States of Micronesia", "SOV_A3": "FSM", "ADM0_DIF": 0, "LEVEL": 2, "TYPE": "Sovereign country", "ADMIN": "Federated States of Micronesia", "ADM0_A3": "FSM", "GEOU_DIF": 0, "GEOUNIT": "Federated States of Micronesia", "GU_A3": "FSM", "SU_DIF": 0, "SUBUNIT": "Federated States of Micronesia", "SU_A3": "FSM", "BRK_DIFF": 0, "NAME": "Micronesia", "NAME_LONG": "Federated States of Micronesia", "BRK_A3": "FSM", "BRK_NAME": "Micronesia", "BRK_GROUP": null, "ABBREV": "F.S.M.", "POSTAL": "FSM", "FORMAL_EN": "Federated States of Micronesia", "FORMAL_FR": null, "NAME_CIAWF": "Micronesia, Federated States of", "NOTE_ADM0": null, "NOTE_BRK": null, "NAME_SORT": "Micronesia, Federated States of", "NAME_ALT": null, "MAPCOLOR7": 5, "MAPCOLOR8": 2, "MAPCOLOR9": 4, "MAPCOLOR13": 13, "POP_EST": 104196.0, "POP_RANK": 9, "GDP_MD_EST": 314.0, "POP_YEAR": 2017, "LASTCENSUS": 2000, "GDP_YEAR": 2016, "ECONOMY": "6. Developing region", "INCOME_GRP": "4. Lower middle income", "WIKIPEDIA": -99, "FIPS_10_": "FM", "ISO_A2": "FM", "ISO_A3": "FSM", "ISO_A3_EH": "FSM", "ISO_N3": "583", "UN_A3": "583", "WB_A2": "FM", "WB_A3": "FSM", "WOE_ID": 23424815, "WOE_ID_EH": 23424815, "WOE_NOTE": "Exact WOE match as country", "ADM0_A3_IS": "FSM", "ADM0_A3_US": "FSM", "ADM0_A3_UN": -99, "ADM0_A3_WB": -99, "CONTINENT": "Oceania", "REGION_UN": "Oceania", "SUBREGION": "Micronesia", "REGION_WB": "East Asia & Pacific", "NAME_LEN": 10, "LONG_LEN": 30, "ABBREV_LEN": 6, "TINY": -99, "HOMEPART": 1, "MIN_ZOOM": 0, "MIN_LABEL": 5.0, "MAX_LABEL": 10.0, "NE_ID": 1159320691.0, "WIKIDATAID": "Q702", "NAME_AR": "ولايات ميكرونيسيا المتحدة", "NAME_BN": "মাইক্রোনেশিয়া যুক্তরাজ্য", "NAME_DE": "Mikronesien", "NAME_EN": "Federated States of Micronesia", "NAME_ES": "Micronesia", "NAME_FR": "Micronésie", "NAME_EL": "Μικρονησία", "NAME_HI": "माइक्रोनेशिया के संघीकृत राज्य", "NAME_HU": "Mikronéziai Szövetségi Államok", "NAME_ID": "Mikronesia", "NAME_IT": "Stati Federati di Micronesia", "NAME_JA": "ミクロネシア連邦", "NAME_KO": "미크로네시아 연방", "NAME_NL": "Micronesia", "NAME_PL": "Mikronezja", "NAME_PT": "Micronésia", "NAME_RU": "Микронезия", "NAME_SV": "Mikronesiens federerade stater", "NAME_TR": "Mikronezya", "NAME_VI": "Micronesia", "NAME_ZH": "密克罗尼西亚联邦" }, "geometry": { "type": "Point", "coordinates": [ 158.242015193460702, 6.885941535379288 ] } },
{ "type": "Feature", "properties": { "fid": 24.0, "scalerank": 2, "featurecla": "Admin-0 Tiny Countries", "sr_label_i": 2, "sr_label_o": 6, "LABELRANK": 6, "SOVEREIGNT": "Marshall Islands", "SOV_A3": "MHL", "ADM0_DIF": 0, "LEVEL": 2, "TYPE": "Sovereign country", "ADMIN": "Marshall Islands", "ADM0_A3": "MHL", "GEOU_DIF": 0, "GEOUNIT": "Marshall Islands", "GU_A3": "MHL", "SU_DIF": 0, "SUBUNIT": "Marshall Islands", "SU_A3": "MHL", "BRK_DIFF": 0, "NAME": "Marshall Is.", "NAME_LONG": "Marshall Islands", "BRK_A3": "MHL", "BRK_NAME": "Marshall Is.", "BRK_GROUP": null, "ABBREV": "M. Is.", "POSTAL": "MH", "FORMAL_EN": "Republic of the Marshall Islands", "FORMAL_FR": null, "NAME_CIAWF": "Marshall Islands", "NOTE_ADM0": null, "NOTE_BRK": null, "NAME_SORT": "Marshall Islands", "NAME_ALT": null, "MAPCOLOR7": 2, "MAPCOLOR8": 5, "MAPCOLOR9": 5, "MAPCOLOR13": 3, "POP_EST": 74539.0, "POP_RANK": 8, "GDP_MD_EST": 180.0, "POP_YEAR": 2017, "LASTCENSUS": 2011, "GDP_YEAR": 2016, "ECONOMY": "6. Developing region", "INCOME_GRP": "4. Lower middle income", "WIKIPEDIA": -99, "FIPS_10_": "RM", "ISO_A2": "MH", "ISO_A3": "MHL", "ISO_A3_EH": "MHL", "ISO_N3": "584", "UN_A3": "584", "WB_A2": "MH", "WB_A3": "MHL", "WOE_ID": 23424932, "WOE_ID_EH": 23424932, "WOE_NOTE": "Exact WOE match as country", "ADM0_A3_IS": "MHL", "ADM0_A3_US": "MHL", "ADM0_A3_UN": -99, "ADM0_A3_WB": -99, "CONTINENT": "Oceania", "REGION_UN": "Oceania", "SUBREGION": "Micronesia", "REGION_WB": "East Asia & Pacific", "NAME_LEN": 12, "LONG_LEN": 16, "ABBREV_LEN": 6, "TINY": 2, "HOMEPART": 1, "MIN_ZOOM": 0, "MIN_LABEL": 5.0, "MAX_LABEL": 10.0, "NE_ID": 1159321057.0, "WIKIDATAID": "Q709", "NAME_AR": "جزر مارشال", "NAME_BN": "মার্শাল দ্বীপপুঞ্জ", "NAME_DE": "Marshallinseln", "NAME_EN": "Marshall Islands", "NAME_ES": "Islas Marshall", "NAME_FR": "îles Marshall", "NAME_EL": "Νησιά Μάρσαλ", "NAME_HI": "मार्शल द्वीपसमूह", "NAME_HU": "Marshall-szigetek", "NAME_ID": "Kepulauan Marshall", "NAME_IT": "Isole Marshall", "NAME_JA": "マーシャル諸島", "NAME_KO": "마셜 제도", "NAME_NL": "Marshalleilanden", "NAME_PL": "Wyspy Marshalla", "NAME_PT": "Ilhas Marshall", "NAME_RU": "Маршалловы Острова", "NAME_SV": "Marshallöarna", "NAME_TR": "Marshall Adaları", "NAME_VI": "Quần đảo Marshall", "NAME_ZH": "馬紹爾群島" }, "geometry": { "type": "Point", "coordinates": [ 168.728966006411838, 7.313460144816133 ] } },
{ "type": "Feature", "properties": { "fid": 25.0, "scalerank": 2, "featurecla": "Admin-0 Tiny Countries", "sr_label_i": 2, "sr_label_o": 6, "LABELRANK": 6, "SOVEREIGNT": "Kiribati", "SOV_A3": "KIR", "ADM0_DIF": 0, "LEVEL": 2, "TYPE": "Sovereign country", "ADMIN": "Kiribati", "ADM0_A3": "KIR", "GEOU_DIF": 0, "GEOUNIT": "Kiribati", "GU_A3": "KIR", "SU_DIF": 0, "SUBUNIT": "Kiribati", "SU_A3": "KIR", "BRK_DIFF": 0, "NAME": "Kiribati", "NAME_LONG": "Kiribati", "BRK_A3": "KIR", "BRK_NAME": "Kiribati", "BRK_GROUP": null, "ABBREV": "Kir.", "POSTAL": "KI", "FORMAL_EN": "Republic of Kiribati", "FORMAL_FR": null, "NAME_CIAWF": "Kiribati", "NOTE_ADM0": null, "NOTE_BRK": null, "NAME_SORT": "Kiribati", "NAME_ALT": null, "MAPCOLOR7": 5, "MAPCOLOR8": 7, "MAPCOLOR9": 6, "MAPCOLOR13": 12, "POP_EST": 108145.0, "POP_RANK": 9, "GDP_MD_EST": 211.0, "POP_YEAR": 2017, "LASTCENSUS": 2005, "GDP_YEAR": 2016, "ECONOMY": "7. Least developed region", "INCOME_GRP": "4. Lower middle income", "WIKIPEDIA": -99, "FIPS_10_": "KR", "ISO_A2": "KI", "ISO_A3": "KIR", "ISO_A3_EH": "KIR", "ISO_N3": "296", "UN_A3": "296", "WB_A2": "KI", "WB_A3": "KIR", "WOE_ID": 23424867, "WOE_ID_EH": 23424867, "WOE_NOTE": "Exact WOE match as country", "ADM0_A3_IS": "KIR", "ADM0_A3_US": "KIR", "ADM0_A3_UN": -99, "ADM0_A3_WB": -99, "CONTINENT": "Oceania", "REGION_UN": "Oceania", "SUBREGION": "Micronesia", "REGION_WB": "East Asia & Pacific", "NAME_LEN": 8, "LONG_LEN": 8, "ABBREV_LEN": 4, "TINY": 2, "HOMEPART": 1, "MIN_ZOOM": 0, "MIN_LABEL": 5.0, "MAX_LABEL": 10.0, "NE_ID": 1159320981.0, "WIKIDATAID": "Q710", "NAME_AR": "كيريباتي", "NAME_BN": "কিরিবাস", "NAME_DE": "Kiribati", "NAME_EN": "Kiribati", "NAME_ES": "Kiribati", "NAME_FR": "Kiribati", "NAME_EL": "Κιριμπάτι", "NAME_HI": "किरिबाती", "NAME_HU": "Kiribati", "NAME_ID": "Kiribati", "NAME_IT": "Kiribati", "NAME_JA": "キリバス", "NAME_KO": "키리바시", "NAME_NL": "Kiribati", "NAME_PL": "Kiribati", "NAME_PT": "Kiribati", "NAME_RU": "Кирибати", "NAME_SV": "Kiribati", "NAME_TR": "Kiribati", "NAME_VI": "Kiribati", "NAME_ZH": "吉里巴斯" }, "geometry": { "type": "Point", "coordinates": [ 173.135158383166186, 1.364258124187756 ] } },
{ "type": "Feature", "properties": { "fid": 26.0, "scalerank": 2, "featurecla": "Admin-0 Tiny Countries", "sr_label_i": 3, "sr_label_o": 6, "LABELRANK": 6, "SOVEREIGNT": "Nauru", "SOV_A3": "NRU", "ADM0_DIF": 0, "LEVEL": 2, "TYPE": "Sovereign country", "ADMIN": "Nauru", "ADM0_A3": "NRU", "GEOU_DIF": 0, "GEOUNIT": "Nauru", "GU_A3": "NRU", "SU_DIF": 0, "SUBUNIT": "Nauru", "SU_A3": "NRU", "BRK_DIFF": 0, "NAME": "Nauru", "NAME_LONG": "Nauru", "BRK_A3": "NRU", "BRK_NAME": "Nauru", "BRK_GROUP": null, "ABBREV": "Nauru", "POSTAL": "NR", "FORMAL_EN": "Republic of Nauru", "FORMAL_FR": null, "NAME_CIAWF": "Nauru", "NOTE_ADM0": null, "NOTE_BRK": null, "NAME_SORT": "Nauru", "NAME_ALT": null, "MAPCOLOR7": 3, "MAPCOLOR8": 7, "MAPCOLOR9": 6, "MAPCOLOR13": 9, "POP_EST": 9642.0, "POP_RANK": 5, "GDP_MD_EST": 150.8, "POP_YEAR": 2017, "LASTCENSUS": -99, "GDP_YEAR": 2015, "ECONOMY": "6. Developing region", "INCOME_GRP": "4. Lower middle income", "WIKIPEDIA": -99, "FIPS_10_": "NR", "ISO_A2": "NR", "ISO_A3": "NRU", "ISO_A3_EH": "NRU", "ISO_N3": "520", "UN_A3": "520", "WB_A2": "-99", "WB_A3": "-99", "WOE_ID": 23424912, "WOE_ID_EH": 23424912, "WOE_NOTE": "Exact WOE match as country", "ADM0_A3_IS": "NRU", "ADM0_A3_US": "NRU", "ADM0_A3_UN": -99, "ADM0_A3_WB": -99, "CONTINENT": "Oceania", "REGION_UN": "Oceania", "SUBREGION": "Micronesia", "REGION_WB": "East Asia & Pacific", "NAME_LEN": 5, "LONG_LEN": 5, "ABBREV_LEN": 5, "TINY": 3, "HOMEPART": 1, "MIN_ZOOM": 0, "MIN_LABEL": 5.0, "MAX_LABEL": 10.0, "NE_ID": 1159321123.0, "WIKIDATAID": "Q697", "NAME_AR": "ناورو", "NAME_BN": "নাউরু", "NAME_DE": "Nauru", "NAME_EN": "Nauru", "NAME_ES": "Nauru", "NAME_FR": "Nauru", "NAME_EL": "Ναουρού", "NAME_HI": "नौरु", "NAME_HU": "Nauru", "NAME_ID": "Nauru", "NAME_IT": "Nauru", "NAME_JA": "ナウル", "NAME_KO": "나우루", "NAME_NL": "Nauru", "NAME_PL": "Nauru", "NAME_PT": "Nauru", "NAME_RU": "Науру", "NAME_SV": "Nauru", "NAME_TR": "Nauru", "NAME_VI": "Nauru", "NAME_ZH": "諾魯" }, "geometry": { "type": "Point", "coordinates": [ 166.93748256244703, -0.523068535976108 ] } },
{ "type": "Feature", "properties": { "fid": 27.0, "scalerank": 2, "featurecla": "Admin-0 Tiny Countries", "sr_label_i": 5, "sr_label_o": 6, "LABELRANK": 6, "SOVEREIGNT": "Tuvalu", "SOV_A3": "TUV", "ADM0_DIF": 0, "LEVEL": 2, "TYPE": "Sovereign country", "ADMIN": "Tuvalu", "ADM0_A3": "TUV", "GEOU_DIF": 0, "GEOUNIT": "Tuvalu", "GU_A3": "TUV", "SU_DIF": 0, "SUBUNIT": "Tuvalu", "SU_A3": "TUV", "BRK_DIFF": 0, "NAME": "Tuvalu", "NAME_LONG": "Tuvalu", "BRK_A3": "TUV", "BRK_NAME": "Tuvalu", "BRK_GROUP": null, "ABBREV": "Tuv.", "POSTAL": "TV", "FORMAL_EN": "Tuvalu", "FORMAL_FR": null, "NAME_CIAWF": "Tuvalu", "NOTE_ADM0": null, "NOTE_BRK": null, "NAME_SORT": "Tuvalu", "NAME_ALT": null, "MAPCOLOR7": 1, "MAPCOLOR8": 3, "MAPCOLOR9": 8, "MAPCOLOR13": 5, "POP_EST": 11052.0, "POP_RANK": 6, "GDP_MD_EST": 39.0, "POP_YEAR": 2017, "LASTCENSUS": 2002, "GDP_YEAR": 2016, "ECONOMY": "7. Least developed region", "INCOME_GRP": "3. Upper middle income", "WIKIPEDIA": -99, "FIPS_10_": "TV", "ISO_A2": "TV", "ISO_A3": "TUV", "ISO_A3_EH": "TUV", "ISO_N3": "798", "UN_A3": "798", "WB_A2": "TV", "WB_A3": "TUV", "WOE_ID": 23424970, "WOE_ID_EH": 23424970, "WOE_NOTE": "Exact WOE match as country", "ADM0_A3_IS": "TUV", "ADM0_A3_US": "TUV", "ADM0_A3_UN": -99, "ADM0_A3_WB": -99, "CONTINENT": "Oceania", "REGION_UN": "Oceania", "SUBREGION": "Polynesia", "REGION_WB": "East Asia & Pacific", "NAME_LEN": 6, "LONG_LEN": 6, "ABBREV_LEN": 4, "TINY": 5, "HOMEPART": 1, "MIN_ZOOM": 0, "MIN_LABEL": 5.0, "MAX_LABEL": 10.0, "NE_ID": 1159321333.0, "WIKIDATAID": "Q672", "NAME_AR": "توفالو", "NAME_BN": "টুভালু", "NAME_DE": "Tuvalu", "NAME_EN": "Tuvalu", "NAME_ES": "Tuvalu", "NAME_FR": "Tuvalu", "NAME_EL": "Τουβαλού", "NAME_HI": "तुवालू", "NAME_HU": "Tuvalu", "NAME_ID": "Tuvalu", "NAME_IT": "Tuvalu", "NAME_JA": "ツバル", "NAME_KO": "투발루", "NAME_NL": "Tuvalu", "NAME_PL": "Tuvalu", "NAME_PT": "Tuvalu", "NAME_RU": "Тувалу", "NAME_SV": "Tuvalu", "NAME_TR": "Tuvalu", "NAME_VI": "Tuvalu", "NAME_ZH": "吐瓦魯" }, "geometry": { "type": "Point", "coordinates": [ 179.203974226233527, -8.499723713165849 ] } },
{ "type": "Feature", "properties": { "fid": 28.0, "scalerank": 2, "featurecla": "Admin-0 Tiny Countries", "sr_label_i": 2, "sr_label_o": 4, "LABELRANK": 5, "SOVEREIGNT": "Mauritius", "SOV_A3": "MUS", "ADM0_DIF": 0, "LEVEL": 2, "TYPE": "Sovereign country", "ADMIN": "Mauritius", "ADM0_A3": "MUS", "GEOU_DIF": 0, "GEOUNIT": "Mauritius", "GU_A3": "MUS", "SU_DIF": 0, "SUBUNIT": "Mauritius", "SU_A3": "MUS", "BRK_DIFF": 0, "NAME": "Mauritius", "NAME_LONG": "Mauritius", "BRK_A3": "MUS", "BRK_NAME": "Mauritius", "BRK_GROUP": null, "ABBREV": "Mus.", "POSTAL": "MU", "FORMAL_EN": "Republic of Mauritius", "FORMAL_FR": null, "NAME_CIAWF": "Mauritius", "NOTE_ADM0": null, "NOTE_BRK": null, "NAME_SORT": "Mauritius", "NAME_ALT": null, "MAPCOLOR7": 1, "MAPCOLOR8": 3, "MAPCOLOR9": 5, "MAPCOLOR13": 7, "POP_EST": 1356388.0, "POP_RANK": 12, "GDP_MD_EST": 25850.0, "POP_YEAR": 2017, "LASTCENSUS": 2011, "GDP_YEAR": 2016, "ECONOMY": "6. Developing region", "INCOME_GRP": "3. Upper middle income", "WIKIPEDIA": -99, "FIPS_10_": "MP", "ISO_A2": "MU", "ISO_A3": "MUS", "ISO_A3_EH": "MUS", "ISO_N3": "480", "UN_A3": "480", "WB_A2": "MU", "WB_A3": "MUS", "WOE_ID": 23424894, "WOE_ID_EH": 23424894, "WOE_NOTE": "Exact WOE match as country", "ADM0_A3_IS": "MUS", "ADM0_A3_US": "MUS", "ADM0_A3_UN": -99, "ADM0_A3_WB": -99, "CONTINENT": "Seven seas (open ocean)", "REGION_UN": "Africa", "SUBREGION": "Eastern Africa", "REGION_WB": "Sub-Saharan Africa", "NAME_LEN": 9, "LONG_LEN": 9, "ABBREV_LEN": 4, "TINY": 2, "HOMEPART": 1, "MIN_ZOOM": 0, "MIN_LABEL": 4.0, "MAX_LABEL": 9.0, "NE_ID": 1159321079.0, "WIKIDATAID": "Q1027", "NAME_AR": "موريشيوس", "NAME_BN": "মরিশাস", "NAME_DE": "Mauritius", "NAME_EN": "Mauritius", "NAME_ES": "Mauricio", "NAME_FR": "Maurice", "NAME_EL": "Μαυρίκιος", "NAME_HI": "मॉरिशस", "NAME_HU": "Mauritius", "NAME_ID": "Mauritius", "NAME_IT": "Mauritius", "NAME_JA": "モーリシャス", "NAME_KO": "모리셔스", "NAME_NL": "Mauritius", "NAME_PL": "Mauritius", "NAME_PT": "Maurícia", "NAME_RU": "Маврикий", "NAME_SV": "Mauritius", "NAME_TR": "Mauritius", "NAME_VI": "Mauritius", "NAME_ZH": "毛里求斯" }, "geometry": { "type": "Point", "coordinates": [ 57.585659958168492, -20.302274672122962 ] } },
{ "type": "Feature", "properties": { "fid": 29.0, "scalerank": 2, "featurecla": "Admin-0 Tiny Countries", "sr_label_i": 2, "sr_label_o": 6, "LABELRANK": 6, "SOVEREIGNT": "Comoros", "SOV_A3": "COM", "ADM0_DIF": 0, "LEVEL": 2, "TYPE": "Sovereign country", "ADMIN": "Comoros", "ADM0_A3": "COM", "GEOU_DIF": 0, "GEOUNIT": "Comoros", "GU_A3": "COM", "SU_DIF": 0, "SUBUNIT": "Comoros", "SU_A3": "COM", "BRK_DIFF": 0, "NAME": "Comoros", "NAME_LONG": "Comoros", "BRK_A3": "COM", "BRK_NAME": "Comoros", "BRK_GROUP": null, "ABBREV": "Com.", "POSTAL": "KM", "FORMAL_EN": "Union of the Comoros", "FORMAL_FR": null, "NAME_CIAWF": "Comoros", "NOTE_ADM0": null, "NOTE_BRK": null, "NAME_SORT": "Comoros", "NAME_ALT": null, "MAPCOLOR7": 2, "MAPCOLOR8": 1, "MAPCOLOR9": 4, "MAPCOLOR13": 10, "POP_EST": 808080.0, "POP_RANK": 11, "GDP_MD_EST": 1259.0, "POP_YEAR": 2017, "LASTCENSUS": 2003, "GDP_YEAR": 2016, "ECONOMY": "7. Least developed region", "INCOME_GRP": "5. Low income", "WIKIPEDIA": -99, "FIPS_10_": "CN", "ISO_A2": "KM", "ISO_A3": "COM", "ISO_A3_EH": "COM", "ISO_N3": "174", "UN_A3": "174", "WB_A2": "KM", "WB_A3": "COM", "WOE_ID": 23424786, "WOE_ID_EH": 23424786, "WOE_NOTE": "Exact WOE match as country", "ADM0_A3_IS": "COM", "ADM0_A3_US": "COM", "ADM0_A3_UN": -99, "ADM0_A3_WB": -99, "CONTINENT": "Africa", "REGION_UN": "Africa", "SUBREGION": "Eastern Africa", "REGION_WB": "Sub-Saharan Africa", "NAME_LEN": 7, "LONG_LEN": 7, "ABBREV_LEN": 4, "TINY": 2, "HOMEPART": 1, "MIN_ZOOM": 0, "MIN_LABEL": 4.0, "MAX_LABEL": 9.0, "NE_ID": 1159320521.0, "WIKIDATAID": "Q970", "NAME_AR": "جزر القمر", "NAME_BN": "কোমোরোস", "NAME_DE": "Komoren", "NAME_EN": "Comoros", "NAME_ES": "Comoras", "NAME_FR": "Comores", "NAME_EL": "Κομόρες", "NAME_HI": "कोमोरोस", "NAME_HU": "Comore-szigetek", "NAME_ID": "Komoro", "NAME_IT": "Comore", "NAME_JA": "コモロ", "NAME_KO": "코모로", "NAME_NL": "Comoren", "NAME_PL": "Komory", "NAME_PT": "Comores", "NAME_RU": "Коморы", "NAME_SV": "Komorerna", "NAME_TR": "Komorlar", "NAME_VI": "Comoros", "NAME_ZH": "葛摩" }, "geometry": { "type": "Point", "coordinates": [ 43.337943198143535, -11.715555516231973 ] } },
{ "type": "Feature", "properties": { "fid": 30.0, "scalerank": 2, "featurecla": "Admin-0 Tiny Countries", "sr_label_i": 3, "sr_label_o": 6, "LABELRANK": 6, "SOVEREIGNT": "Denmark", "SOV_A3": "DN1", "ADM0_DIF": 1, "LEVEL": 2, "TYPE": "Dependency", "ADMIN": "Faroe Islands", "ADM0_A3": "FRO", "GEOU_DIF": 0, "GEOUNIT": "Faroe Islands", "GU_A3": "FRO", "SU_DIF": 0, "SUBUNIT": "Faroe Islands", "SU_A3": "FRO", "BRK_DIFF": 0, "NAME": "Faeroe Is.", "NAME_LONG": "Faeroe Islands", "BRK_A3": "FRO", "BRK_NAME": "Faeroe Islands", "BRK_GROUP": null, "ABBREV": "Faeroe Is.", "POSTAL": "FO", "FORMAL_EN": "Føroyar Is. (Faeroe Is.)", "FORMAL_FR": null, "NAME_CIAWF": "Faroe Islands", "NOTE_ADM0": "Den.", "NOTE_BRK": null, "NAME_SORT": "Faeroe Islands", "NAME_ALT": null, "MAPCOLOR7": 4, "MAPCOLOR8": 1, "MAPCOLOR9": 3, "MAPCOLOR13": 12, "POP_EST": 50730.0, "POP_RANK": 8, "GDP_MD_EST": 2001.0, "POP_YEAR": 2017, "LASTCENSUS": 2011, "GDP_YEAR": 2014, "ECONOMY": "2. Developed region: nonG7", "INCOME_GRP": "2. High income: nonOECD", "WIKIPEDIA": -99, "FIPS_10_": "FO", "ISO_A2": "FO", "ISO_A3": "FRO", "ISO_A3_EH": "FRO", "ISO_N3": "234", "UN_A3": "234", "WB_A2": "FO", "WB_A3": "FRO", "WOE_ID": 23424816, "WOE_ID_EH": 23424816, "WOE_NOTE": "Exact WOE match as country", "ADM0_A3_IS": "FRO", "ADM0_A3_US": "FRO", "ADM0_A3_UN": -99, "ADM0_A3_WB": -99, "CONTINENT": "Europe", "REGION_UN": "Europe", "SUBREGION": "Northern Europe", "REGION_WB": "Europe & Central Asia", "NAME_LEN": 10, "LONG_LEN": 14, "ABBREV_LEN": 10, "TINY": 3, "HOMEPART": -99, "MIN_ZOOM": 0, "MIN_LABEL": 4.0, "MAX_LABEL": 9.0, "NE_ID": 1159320549.0, "WIKIDATAID": "Q4628", "NAME_AR": "جزر فارو", "NAME_BN": "ফ্যারও দ্বীপপুঞ্জ", "NAME_DE": "Färöer", "NAME_EN": "Faroe Islands", "NAME_ES": "Islas Feroe", "NAME_FR": "îles Féroé", "NAME_EL": "Νήσοι Φερόες", "NAME_HI": "फ़रो द्वीपसमूह", "NAME_HU": "Feröer", "NAME_ID": "Kepulauan Faroe", "NAME_IT": "Fær Øer", "NAME_JA": "フェロー諸島", "NAME_KO": "페로 제도", "NAME_NL": "Faeröer", "NAME_PL": "Wyspy Owcze", "NAME_PT": "Ilhas Feroe", "NAME_RU": "Фарерские острова", "NAME_SV": "Färöarna", "NAME_TR": "Faroe Adaları", "NAME_VI": "Quần đảo Faroe", "NAME_ZH": "法罗群岛" }, "geometry": { "type": "Point", "coordinates": [ -6.942567803221323, 62.191617760358326 ] } },
{ "type": "Feature", "properties": { "fid": 31.0, "scalerank": 2, "featurecla": "Admin-0 Tiny Countries", "sr_label_i": 2, "sr_label_o": 6, "LABELRANK": 6, "SOVEREIGNT": "Norway", "SOV_A3": "NOR", "ADM0_DIF": 0, "LEVEL": 3, "TYPE": "Geo unit", "ADMIN": "Norway", "ADM0_A3": "NOR", "GEOU_DIF": 1, "GEOUNIT": "Jan Mayen", "GU_A3": "NJM", "SU_DIF": 0, "SUBUNIT": "Jan Mayen", "SU_A3": "NJM", "BRK_DIFF": 0, "NAME": "Jan Mayen I.", "NAME_LONG": "Jan Mayen Island", "BRK_A3": "NJM", "BRK_NAME": "Jan Mayen", "BRK_GROUP": null, "ABBREV": "J.M.", "POSTAL": "JM", "FORMAL_EN": null, "FORMAL_FR": null, "NAME_CIAWF": null, "NOTE_ADM0": "Nor.", "NOTE_BRK": null, "NAME_SORT": "Jan Mayen I.", "NAME_ALT": null, "MAPCOLOR7": 5, "MAPCOLOR8": 3, "MAPCOLOR9": 8, "MAPCOLOR13": 12, "POP_EST": 20.0, "POP_RANK": 1, "GDP_MD_EST": 0.0, "POP_YEAR": 2017, "LASTCENSUS": -99, "GDP_YEAR": 2016, "ECONOMY": "7. Least developed region", "INCOME_GRP": "5. Low income", "WIKIPEDIA": -99, "FIPS_10_": "JN", "ISO_A2": "-99", "ISO_A3": "-99", "ISO_A3_EH": "-99", "ISO_N3": "-99", "UN_A3": "-099", "WB_A2": "-99", "WB_A3": "-99", "WOE_ID": 23424859, "WOE_ID_EH": 23424859, "WOE_NOTE": "WOE admin-1 (territory) match.", "ADM0_A3_IS": "SJM", "ADM0_A3_US": "NOR", "ADM0_A3_UN": -99, "ADM0_A3_WB": -99, "CONTINENT": "Europe", "REGION_UN": "Europe", "SUBREGION": "Northern Europe", "REGION_WB": "Europe & Central Asia", "NAME_LEN": 12, "LONG_LEN": 16, "ABBREV_LEN": 4, "TINY": -99, "HOMEPART": -99, "MIN_ZOOM": 0, "MIN_LABEL": 4.0, "MAX_LABEL": 9.0, "NE_ID": 1159321115.0, "WIKIDATAID": "Q14056", "NAME_AR": "يان ماين", "NAME_BN": "ইয়ান মায়েন", "NAME_DE": "Jan Mayen", "NAME_EN": "Jan Mayen", "NAME_ES": "Jan Mayen", "NAME_FR": "Jan Mayen", "NAME_EL": "Γιαν Μαγιέν", "NAME_HI": "यान मायेन", "NAME_HU": "Jan Mayen-sziget", "NAME_ID": "Jan Mayen", "NAME_IT": "Jan Mayen", "NAME_JA": "ヤンマイエン島", "NAME_KO": "얀마옌 섬", "NAME_NL": "Jan Mayen", "NAME_PL": "Jan Mayen", "NAME_PT": "Jan Mayen", "NAME_RU": "Ян-Майен", "NAME_SV": "Jan Mayen", "NAME_TR": "Jan Mayen", "NAME_VI": "Jan Mayen", "NAME_ZH": "揚馬延島" }, "geometry": { "type": "Point", "coordinates": [ -8.420617438175157, 71.028248806432543 ] } },
{ "type": "Feature", "properties": { "fid": 32.0, "scalerank": 2, "featurecla": "Admin-0 Tiny Countries", "sr_label_i": 3, "sr_label_o": 6, "LABELRANK": 4, "SOVEREIGNT": "France", "SOV_A3": "FR1", "ADM0_DIF": 1, "LEVEL": 2, "TYPE": "Dependency", "ADMIN": "Saint Pierre and Miquelon", "ADM0_A3": "SPM", "GEOU_DIF": 0, "GEOUNIT": "Saint Pierre and Miquelon", "GU_A3": "SPM", "SU_DIF": 0, "SUBUNIT": "Saint Pierre and Miquelon", "SU_A3": "SPM", "BRK_DIFF": 0, "NAME": "St. Pierre and Miquelon", "NAME_LONG": "Saint Pierre and Miquelon", "BRK_A3": "SPM", "BRK_NAME": "St. Pierre and Miquelon", "BRK_GROUP": null, "ABBREV": "St. P.M.", "POSTAL": "PM", "FORMAL_EN": "Saint Pierre and Miquelon", "FORMAL_FR": null, "NAME_CIAWF": "Saint Pierre and Miquelon", "NOTE_ADM0": "Fr.", "NOTE_BRK": null, "NAME_SORT": "St. Pierre and Miquelon", "NAME_ALT": null, "MAPCOLOR7": 7, "MAPCOLOR8": 5, "MAPCOLOR9": 9, "MAPCOLOR13": 11, "POP_EST": 5533.0, "POP_RANK": 5, "GDP_MD_EST": 215.3, "POP_YEAR": 2017, "LASTCENSUS": -99, "GDP_YEAR": 2016, "ECONOMY": "2. Developed region: nonG7", "INCOME_GRP": "3. Upper middle income", "WIKIPEDIA": -99, "FIPS_10_": "SB", "ISO_A2": "PM", "ISO_A3": "SPM", "ISO_A3_EH": "SPM", "ISO_N3": "666", "UN_A3": "666", "WB_A2": "-99", "WB_A3": "-99", "WOE_ID": 23424939, "WOE_ID_EH": 23424939, "WOE_NOTE": "Exact WOE match as country", "ADM0_A3_IS": "SPM", "ADM0_A3_US": "SPM", "ADM0_A3_UN": -99, "ADM0_A3_WB": -99, "CONTINENT": "North America", "REGION_UN": "Americas", "SUBREGION": "Northern America", "REGION_WB": "North America", "NAME_LEN": 23, "LONG_LEN": 25, "ABBREV_LEN": 8, "TINY": 3, "HOMEPART": -99, "MIN_ZOOM": 0, "MIN_LABEL": 5.0, "MAX_LABEL": 10.0, "NE_ID": 1159320647.0, "WIKIDATAID": "Q34617", "NAME_AR": "سان بيير وميكلون", "NAME_BN": "সাঁ পিয়ের ও মিক‌লোঁ", "NAME_DE": "Saint-Pierre und Miquelon", "NAME_EN": "Saint Pierre and Miquelon", "NAME_ES": "San Pedro y Miquelón", "NAME_FR": "Saint-Pierre-et-Miquelon", "NAME_EL": "Σαιν Πιερ και Μικελόν", "NAME_HI": "साँ-प्येर और मीकेलों", "NAME_HU": "Saint-Pierre és Miquelon", "NAME_ID": "Saint Pierre dan Miquelon", "NAME_IT": "Saint-Pierre e Miquelon", "NAME_JA": "サンピエール島・ミクロン島", "NAME_KO": "생피에르 미클롱", "NAME_NL": "Saint-Pierre en Miquelon", "NAME_PL": "Saint-Pierre i Miquelon", "NAME_PT": "Saint-Pierre e Miquelon", "NAME_RU": "Сен-Пьер и Микелон", "NAME_SV": "Saint-Pierre och Miquelon", "NAME_TR": "Saint Pierre ve Miquelon", "NAME_VI": "Saint-Pierre và Miquelon", "NAME_ZH": "圣皮埃尔和密克隆群岛" }, "geometry": { "type": "Point", "coordinates": [ -56.315703042343273, 46.857465586140222 ] } },
{ "type": "Feature", "properties": { "fid": 33.0, "scalerank": 2, "featurecla": "Admin-0 Tiny Countries", "sr_label_i": 2, "sr_label_o": 4, "LABELRANK": 6, "SOVEREIGNT": "United Kingdom", "SOV_A3": "GB1", "ADM0_DIF": 1, "LEVEL": 2, "TYPE": "Dependency", "ADMIN": "Bermuda", "ADM0_A3": "BMU", "GEOU_DIF": 0, "GEOUNIT": "Bermuda", "GU_A3": "BMU", "SU_DIF": 0, "SUBUNIT": "Bermuda", "SU_A3": "BMU", "BRK_DIFF": 0, "NAME": "Bermuda", "NAME_LONG": "Bermuda", "BRK_A3": "BMU", "BRK_NAME": "Bermuda", "BRK_GROUP": null, "ABBREV": "Berm.", "POSTAL": "BM", "FORMAL_EN": "The Bermudas or Somers Isles", "FORMAL_FR": null, "NAME_CIAWF": "Bermuda", "NOTE_ADM0": "U.K.", "NOTE_BRK": null, "NAME_SORT": "Bermuda", "NAME_ALT": null, "MAPCOLOR7": 6, "MAPCOLOR8": 6, "MAPCOLOR9": 6, "MAPCOLOR13": 3, "POP_EST": 70864.0, "POP_RANK": 8, "GDP_MD_EST": 5198.0, "POP_YEAR": 2017, "LASTCENSUS": 2010, "GDP_YEAR": 2013, "ECONOMY": "2. Developed region: nonG7", "INCOME_GRP": "2. High income: nonOECD", "WIKIPEDIA": -99, "FIPS_10_": "BD", "ISO_A2": "BM", "ISO_A3": "BMU", "ISO_A3_EH": "BMU", "ISO_N3": "060", "UN_A3": "060", "WB_A2": "BM", "WB_A3": "BMU", "WOE_ID": 23424756, "WOE_ID_EH": 23424756, "WOE_NOTE": "Exact WOE match as country", "ADM0_A3_IS": "BMU", "ADM0_A3_US": "BMU", "ADM0_A3_UN": -99, "ADM0_A3_WB": -99, "CONTINENT": "North America", "REGION_UN": "Americas", "SUBREGION": "Northern America", "REGION_WB": "North America", "NAME_LEN": 7, "LONG_LEN": 7, "ABBREV_LEN": 5, "TINY": 4, "HOMEPART": -99, "MIN_ZOOM": 0, "MIN_LABEL": 4.0, "MAX_LABEL": 9.0, "NE_ID": 1159320705.0, "WIKIDATAID": "Q23635", "NAME_AR": "برمودا", "NAME_BN": "বারমুডা", "NAME_DE": "Bermuda", "NAME_EN": "Bermuda", "NAME_ES": "Bermudas", "NAME_FR": "Bermudes", "NAME_EL": "Βερμούδες", "NAME_HI": "बरमूडा", "NAME_HU": "Bermuda", "NAME_ID": "Bermuda", "NAME_IT": "Bermuda", "NAME_JA": "バミューダ諸島", "NAME_KO": "버뮤다", "NAME_NL": "Bermuda", "NAME_PL": "Bermudy", "NAME_PT": "Bermudas", "NAME_RU": "Бермудские Острова", "NAME_SV": "Bermuda", "NAME_TR": "Bermuda", "NAME_VI": "Bermuda", "NAME_ZH": "百慕大" }, "geometry": { "type": "Point", "coordinates": [ -64.747977986307035, 32.307221641280876 ] } },
{ "type": "Feature", "properties": { "fid": 34.0, "scalerank": 2, "featurecla": "Admin-0 Tiny Countries", "sr_label_i": 2, "sr_label_o": 6, "LABELRANK": 6, "SOVEREIGNT": "Portugal", "SOV_A3": "PRT", "ADM0_DIF": 0, "LEVEL": 3, "TYPE": "Geo unit", "ADMIN": "Portugal", "ADM0_A3": "PRT", "GEOU_DIF": 1, "GEOUNIT": "Azores", "GU_A3": "PAZ", "SU_DIF": 0, "SUBUNIT": "Azores", "SU_A3": "PAZ", "BRK_DIFF": 0, "NAME": "Azores", "NAME_LONG": "Azores", "BRK_A3": "PAZ", "BRK_NAME": "Azores", "BRK_GROUP": null, "ABBREV": "Az.", "POSTAL": "AZ", "FORMAL_EN": null, "FORMAL_FR": null, "NAME_CIAWF": null, "NOTE_ADM0": "Port.", "NOTE_BRK": null, "NAME_SORT": "Azores", "NAME_ALT": null, "MAPCOLOR7": 1, "MAPCOLOR8": 7, "MAPCOLOR9": 1, "MAPCOLOR13": 4, "POP_EST": 235374.0, "POP_RANK": 10, "GDP_MD_EST": 4492.0, "POP_YEAR": 0, "LASTCENSUS": -99, "GDP_YEAR": 2016, "ECONOMY": "2. Developed region: nonG7", "INCOME_GRP": "1. High income: OECD", "WIKIPEDIA": -99, "FIPS_10_": "-99", "ISO_A2": "-99", "ISO_A3": "-99", "ISO_A3_EH": "-99", "ISO_N3": "-99", "UN_A3": "-099", "WB_A2": "-99", "WB_A3": "-99", "WOE_ID": 15021776, "WOE_ID_EH": 15021776, "WOE_NOTE": "Exact WOE match as country", "ADM0_A3_IS": "-99", "ADM0_A3_US": "PRT", "ADM0_A3_UN": -99, "ADM0_A3_WB": -99, "CONTINENT": "Seven seas (open ocean)", "REGION_UN": "Europe", "SUBREGION": "Southern Europe", "REGION_WB": "Europe & Central Asia", "NAME_LEN": 6, "LONG_LEN": 6, "ABBREV_LEN": 3, "TINY": -99, "HOMEPART": -99, "MIN_ZOOM": 0, "MIN_LABEL": 5.0, "MAX_LABEL": 10.0, "NE_ID": 1159321189.0, "WIKIDATAID": "Q25263", "NAME_AR": "الأزور", "NAME_BN": "অ্যাজোরেস", "NAME_DE": "Azoren", "NAME_EN": "Azores", "NAME_ES": "Azores", "NAME_FR": "Açores", "NAME_EL": "Αζόρες", "NAME_HI": "एज़ोरेस", "NAME_HU": "Azori-szigetek", "NAME_ID": "Azores", "NAME_IT": "Azzorre", "NAME_JA": "アゾレス諸島", "NAME_KO": "아소르스 제도", "NAME_NL": "Azoren", "NAME_PL": "Azory", "NAME_PT": "Açores", "NAME_RU": "Азорские острова", "NAME_SV": "Azorerna", "NAME_TR": "Azorlar", "NAME_VI": "Açores", "NAME_ZH": "亚速尔群岛" }, "geometry": { "type": "Point", "coordinates": [ -28.423474244011175, 38.482330117709921 ] } },
{ "type": "Feature", "properties": { "fid": 35.0, "scalerank": 2, "featurecla": "Admin-0 Tiny Countries", "sr_label_i": 2, "sr_label_o": 6, "LABELRANK": 5, "SOVEREIGNT": "Spain", "SOV_A3": "ESP", "ADM0_DIF": 0, "LEVEL": 4, "TYPE": "Geo subunit", "ADMIN": "Spain", "ADM0_A3": "ESP", "GEOU_DIF": 0, "GEOUNIT": "Spain", "GU_A3": "ESP", "SU_DIF": 1, "SUBUNIT": "Canary Islands", "SU_A3": "ESC", "BRK_DIFF": 0, "NAME": "Canary Is.", "NAME_LONG": "Canary Islands", "BRK_A3": "ESC", "BRK_NAME": "Canary Is.", "BRK_GROUP": null, "ABBREV": "Can. Is.", "POSTAL": "CI", "FORMAL_EN": null, "FORMAL_FR": null, "NAME_CIAWF": null, "NOTE_ADM0": "Sp.", "NOTE_BRK": null, "NAME_SORT": "Canary Islands", "NAME_ALT": null, "MAPCOLOR7": 4, "MAPCOLOR8": 5, "MAPCOLOR9": 5, "MAPCOLOR13": 5, "POP_EST": 2098593.0, "POP_RANK": 12, "GDP_MD_EST": 72441.9, "POP_YEAR": 2013, "LASTCENSUS": -99, "GDP_YEAR": 2016, "ECONOMY": "2. Developed region: nonG7", "INCOME_GRP": "1. High income: OECD", "WIKIPEDIA": -99, "FIPS_10_": "-99", "ISO_A2": "-99", "ISO_A3": "-99", "ISO_A3_EH": "-99", "ISO_N3": "-99", "UN_A3": "-099", "WB_A2": "-99", "WB_A3": "-99", "WOE_ID": -99, "WOE_ID_EH": -99, "WOE_NOTE": "Not yet investigated.", "ADM0_A3_IS": "ESP", "ADM0_A3_US": "ESP", "ADM0_A3_UN": -99, "ADM0_A3_WB": -99, "CONTINENT": "Africa", "REGION_UN": "Europe", "SUBREGION": "Southern Europe", "REGION_WB": "Europe & Central Asia", "NAME_LEN": 10, "LONG_LEN": 14, "ABBREV_LEN": 8, "TINY": -99, "HOMEPART": -99, "MIN_ZOOM": 0, "MIN_LABEL": 5.0, "MAX_LABEL": 10.0, "NE_ID": 1159320589.0, "WIKIDATAID": "Q5813", "NAME_AR": "جزر الكناري", "NAME_BN": "কানারি দ্বীপপুঞ্জ", "NAME_DE": "Kanarische Inseln", "NAME_EN": "Canary Islands", "NAME_ES": "Canarias", "NAME_FR": "Îles Canaries", "NAME_EL": "Κανάριες Νήσοι", "NAME_HI": "कैनरी द्वीपसमूह", "NAME_HU": "Kanári-szigetek", "NAME_ID": "Kepulauan Canaria", "NAME_IT": "isole Canarie", "NAME_JA": "カナリア諸島", "NAME_KO": "카나리아 제도", "NAME_NL": "Canarische Eilanden", "NAME_PL": "Wyspy Kanaryjskie", "NAME_PT": "Canárias", "NAME_RU": "Канарские острова", "NAME_SV": "Kanarieöarna", "NAME_TR": "Kanarya Adaları", "NAME_VI": "Quần đảo Canaria", "NAME_ZH": "加那利群岛" }, "geometry": { "type": "Point", "coordinates": [ -16.592772263568634, 28.228989968662177 ] } },
{ "type": "Feature", "properties": { "fid": 36.0, "scalerank": 2, "featurecla": "Admin-0 Tiny Countries", "sr_label_i": 3, "sr_label_o": 6, "LABELRANK": 6, "SOVEREIGNT": "Portugal", "SOV_A3": "PRT", "ADM0_DIF": 0, "LEVEL": 3, "TYPE": "Geo unit", "ADMIN": "Portugal", "ADM0_A3": "PRT", "GEOU_DIF": 1, "GEOUNIT": "Madeira", "GU_A3": "PMD", "SU_DIF": 0, "SUBUNIT": "Madeira", "SU_A3": "PMD", "BRK_DIFF": 0, "NAME": "Madeira", "NAME_LONG": "Madeira", "BRK_A3": "PMD", "BRK_NAME": "Madeira", "BRK_GROUP": null, "ABBREV": "Mad.", "POSTAL": "MD", "FORMAL_EN": null, "FORMAL_FR": null, "NAME_CIAWF": null, "NOTE_ADM0": "Port.", "NOTE_BRK": null, "NAME_SORT": "Madeira", "NAME_ALT": null, "MAPCOLOR7": 1, "MAPCOLOR8": 7, "MAPCOLOR9": 1, "MAPCOLOR13": 4, "POP_EST": 267785.0, "POP_RANK": 10, "GDP_MD_EST": 6414.0, "POP_YEAR": 0, "LASTCENSUS": -99, "GDP_YEAR": 2016, "ECONOMY": "2. Developed region: nonG7", "INCOME_GRP": "1. High income: OECD", "WIKIPEDIA": 0, "FIPS_10_": "-99", "ISO_A2": "-99", "ISO_A3": "-99", "ISO_A3_EH": "-99", "ISO_N3": "-99", "UN_A3": "-099", "WB_A2": "-99", "WB_A3": "-99", "WOE_ID": 2346570, "WOE_ID_EH": 2346570, "WOE_NOTE": "Exact WOE match as country", "ADM0_A3_IS": "-99", "ADM0_A3_US": "PRT", "ADM0_A3_UN": -99, "ADM0_A3_WB": -99, "CONTINENT": "Africa", "REGION_UN": "Europe", "SUBREGION": "Southern Europe", "REGION_WB": "Europe & Central Asia", "NAME_LEN": 7, "LONG_LEN": 7, "ABBREV_LEN": 4, "TINY": -99, "HOMEPART": -99, "MIN_ZOOM": 0, "MIN_LABEL": 5.0, "MAX_LABEL": 10.0, "NE_ID": 1159321191.0, "WIKIDATAID": "Q26253", "NAME_AR": "جزر ماديرا", "NAME_BN": null, "NAME_DE": "Autonome Region Madeira", "NAME_EN": "Madeira", "NAME_ES": "Madeira", "NAME_FR": "Madère", "NAME_EL": "Μαδέρα", "NAME_HI": "मदेरा", "NAME_HU": "Madeira-szigetek", "NAME_ID": "Madeira", "NAME_IT": "Madera", "NAME_JA": "マデイラ諸島", "NAME_KO": "마데이라 제도", "NAME_NL": "Madeira", "NAME_PL": "Madera", "NAME_PT": "Região Autónoma da Madeira", "NAME_RU": "Мадейра", "NAME_SV": "Madeira", "NAME_TR": "Madeira Adaları", "NAME_VI": "Madeira", "NAME_ZH": "馬德拉" }, "geometry": { "type": "Point", "coordinates": [ -16.959751345358598, 32.745365140496688 ] } },
{ "type": "Feature", "properties": { "fid": 37.0, "scalerank": 2, "featurecla": "Admin-0 Tiny Countries", "sr_label_i": 3, "sr_label_o": 6, "LABELRANK": 4, "SOVEREIGNT": "United Kingdom", "SOV_A3": "GB1", "ADM0_DIF": 1, "LEVEL": 2, "TYPE": "Dependency", "ADMIN": "South Georgia and the Islands", "ADM0_A3": "SGS", "GEOU_DIF": 0, "GEOUNIT": "South Georgia and the Islands", "GU_A3": "SGS", "SU_DIF": 0, "SUBUNIT": "South Georgia and the Islands", "SU_A3": "SGS", "BRK_DIFF": 0, "NAME": "S. Geo. and the Is.", "NAME_LONG": "South Georgia and the Islands", "BRK_A3": "SGS", "BRK_NAME": "S. Geo. and the Is.", "BRK_GROUP": null, "ABBREV": "S.G. & Is.", "POSTAL": "GS", "FORMAL_EN": "South Georgia and the Islands", "FORMAL_FR": null, "NAME_CIAWF": null, "NOTE_ADM0": "U.K.", "NOTE_BRK": null, "NAME_SORT": "South Georgia and the Islands", "NAME_ALT": null, "MAPCOLOR7": 6, "MAPCOLOR8": 6, "MAPCOLOR9": 6, "MAPCOLOR13": 3, "POP_EST": 30.0, "POP_RANK": 1, "GDP_MD_EST": 0.3, "POP_YEAR": 2017, "LASTCENSUS": -99, "GDP_YEAR": 2016, "ECONOMY": "7. Least developed region", "INCOME_GRP": "5. Low income", "WIKIPEDIA": -99, "FIPS_10_": "SX", "ISO_A2": "GS", "ISO_A3": "SGS", "ISO_A3_EH": "SGS", "ISO_N3": "239", "UN_A3": "-099", "WB_A2": "-99", "WB_A3": "-99", "WOE_ID": 23424955, "WOE_ID_EH": 23424955, "WOE_NOTE": "Exact WOE match as country", "ADM0_A3_IS": "SGS", "ADM0_A3_US": "SGS", "ADM0_A3_UN": -99, "ADM0_A3_WB": -99, "CONTINENT": "Seven seas (open ocean)", "REGION_UN": "Seven seas (open ocean)", "SUBREGION": "Seven seas (open ocean)", "REGION_WB": "Antarctica", "NAME_LEN": 19, "LONG_LEN": 29, "ABBREV_LEN": 10, "TINY": 3, "HOMEPART": -99, "MIN_ZOOM": 0, "MIN_LABEL": 5.0, "MAX_LABEL": 9.0, "NE_ID": 1159320731.0, "WIKIDATAID": "Q35086", "NAME_AR": "جورجيا الجنوبية وجزر ساندويتش الجنوبية", "NAME_BN": "দক্ষিণ জর্জিয়া ও দক্ষিণ স্যন্ডউইচ দ্বীপপুঞ্জ", "NAME_DE": "Südgeorgien und die Südlichen Sandwichinseln", "NAME_EN": "South Georgia and the South Sandwich Islands", "NAME_ES": "Islas Georgias del Sur y Sándwich del Sur", "NAME_FR": "Géorgie du Sud-et-les Îles Sandwich du Sud", "NAME_EL": "Νήσοι Νότια Γεωργία και Νότιες Σάντουιτς", "NAME_HI": "दक्षिण जॉर्जिया एवं दक्षिण सैंडविच द्वीप समूह", "NAME_HU": "Déli-Georgia és Déli-Sandwich-szigetek", "NAME_ID": "Georgia Selatan dan Kepulauan Sandwich Selatan", "NAME_IT": "Georgia del Sud e isole Sandwich meridionali", "NAME_JA": "サウスジョージア・サウスサンドウィッチ諸島", "NAME_KO": "사우스조지아 사우스샌드위치 제도", "NAME_NL": "Zuid-Georgia en de Zuidelijke Sandwicheilanden", "NAME_PL": "Georgia Południowa i Sandwich Południowy", "NAME_PT": "Ilhas Geórgia do Sul e Sandwich do Sul", "NAME_RU": "Южная Георгия и Южные Сандвичевы острова", "NAME_SV": "Sydgeorgien och Sydsandwichöarna", "NAME_TR": "Güney Georgia ve Güney Sandwich Adaları", "NAME_VI": "Nam Georgia và Quần đảo Nam Sandwich", "NAME_ZH": "南喬治亞島與南桑威奇群島" }, "geometry": { "type": "Point", "coordinates": [ -36.792143407672654, -54.274478863695265 ] } }
]
}
